{"type": "FeatureCollection", "features": [{"type": "Feature", "properties": {"nombre": "Abate Molina", "m": 1953}, "geometry": {"type": "LineString", "coordinates": [[-70.6717434, -33.4664268], [-70.6716627, -33.4663322], [-70.6715851, -33.4660531], [-70.6715613, -33.4633375], [-70.672093, -33.4589672], [-70.6722906, -33.4566988], [-70.6724565, -33.454456], [-70.6726087, -33.4494761], [-70.6726699, -33.4493561], [-70.6729574, -33.4491265]]}}, {"type": "Feature", "properties": {"nombre": "Abdón Cifuentes", "m": 476}, "geometry": {"type": "LineString", "coordinates": [[-70.6659702, -33.4476158], [-70.6655377, -33.451013], [-70.6657291, -33.4513102], [-70.6656976, -33.4518034]]}}, {"type": "Feature", "properties": {"nombre": "Agustín Edwards", "m": 163}, "geometry": {"type": "LineString", "coordinates": [[-70.6634586, -33.4699916], [-70.6649231, -33.4700353]]}}, {"type": "Feature", "properties": {"nombre": "Alamos", "m": 367}, "geometry": {"type": "LineString", "coordinates": [[-70.6581627, -33.4733543], [-70.6584301, -33.47007]]}}, {"type": "Feature", "properties": {"nombre": "Alejandro Acosta", "m": 204}, "geometry": {"type": "LineString", "coordinates": [[-70.6673462, -33.4734697], [-70.6672874, -33.4733624], [-70.6672764, -33.4725922], [-70.6670693, -33.4723055], [-70.6666508, -33.4718979]]}}, {"type": "Feature", "properties": {"nombre": "Almirante Blanco Encalada", "m": 254}, "geometry": {"type": "LineString", "coordinates": [[-70.6783763, -33.4588606], [-70.6782197, -33.4589249], [-70.6761163, -33.4587545]]}}, {"type": "Feature", "properties": {"nombre": "Almirante Blanco Encalada", "m": 2002}, "geometry": {"type": "LineString", "coordinates": [[-70.6783723, -33.4588085], [-70.6721255, -33.4584664], [-70.6648879, -33.4571998], [-70.6608737, -33.4568926], [-70.6606943, -33.4569058], [-70.6605481, -33.4569953]]}}, {"type": "Feature", "properties": {"nombre": "Almirante Blanco Encalada", "m": 2309}, "geometry": {"type": "LineString", "coordinates": [[-70.6577784, -33.4564251], [-70.6650133, -33.4570602], [-70.6721399, -33.4583116], [-70.6783674, -33.4587011]]}}, {"type": "Feature", "properties": {"nombre": "Almirante Blanco Encalada", "m": 244}, "geometry": {"type": "LineString", "coordinates": [[-70.6761827, -33.4584846], [-70.6767274, -33.45844], [-70.678178, -33.4581477], [-70.6783396, -33.4581666]]}}, {"type": "Feature", "properties": {"nombre": "Almirante Blanco Encalada", "m": 300}, "geometry": {"type": "LineString", "coordinates": [[-70.6596835, -33.4567619], [-70.6571696, -33.4564965], [-70.6570029, -33.4565355]]}}, {"type": "Feature", "properties": {"nombre": "Almirante Blanco Encalada", "m": 108}, "geometry": {"type": "LineString", "coordinates": [[-70.6567394, -33.4564012], [-70.6557819, -33.45622]]}}, {"type": "Feature", "properties": {"nombre": "Almirante Churruca", "m": 323}, "geometry": {"type": "LineString", "coordinates": [[-70.6788541, -33.464957], [-70.6770002, -33.465077], [-70.6759686, -33.4648935]]}}, {"type": "Feature", "properties": {"nombre": "Almirante Hurtado", "m": 160}, "geometry": {"type": "LineString", "coordinates": [[-70.6642769, -33.4545303], [-70.6628644, -33.4542539]]}}, {"type": "Feature", "properties": {"nombre": "Almirante Latorre", "m": 428}, "geometry": {"type": "LineString", "coordinates": [[-70.6648006, -33.4473983], [-70.6647277, -33.4502797], [-70.664638, -33.4512335]]}}, {"type": "Feature", "properties": {"nombre": "Almirante Latorre", "m": 643}, "geometry": {"type": "LineString", "coordinates": [[-70.6640405, -33.4569812], [-70.664638, -33.4512335]]}}, {"type": "Feature", "properties": {"nombre": "Alonso de Ovalle", "m": 505}, "geometry": {"type": "LineString", "coordinates": [[-70.6598377, -33.4474411], [-70.65534258, -33.44685980235537]]}}, {"type": "Feature", "properties": {"nombre": "Antofagasta", "m": 105}, "geometry": {"type": "LineString", "coordinates": [[-70.6795502, -33.4666883], [-70.6801753, -33.4666602], [-70.6804837, -33.4667291]]}}, {"type": "Feature", "properties": {"nombre": "Antofagasta", "m": 105}, "geometry": {"type": "LineString", "coordinates": [[-70.6804837, -33.4667291], [-70.6798205, -33.4667453], [-70.6795502, -33.4666883]]}}, {"type": "Feature", "properties": {"nombre": "Antofagasta", "m": 870}, "geometry": {"type": "LineString", "coordinates": [[-70.6717434, -33.4664268], [-70.6795502, -33.4666883]]}}, {"type": "Feature", "properties": {"nombre": "Antofagasta", "m": 144}, "geometry": {"type": "LineString", "coordinates": [[-70.6649546, -33.4655545], [-70.6636735, -33.4653647]]}}, {"type": "Feature", "properties": {"nombre": "Arica", "m": 241}, "geometry": {"type": "LineString", "coordinates": [[-70.6783674, -33.4587011], [-70.68053242, -33.45882629970842]]}}, {"type": "Feature", "properties": {"nombre": "Arica", "m": 241}, "geometry": {"type": "LineString", "coordinates": [[-70.68053242, -33.458933422602406], [-70.6783723, -33.4588085]]}}, {"type": "Feature", "properties": {"nombre": "Arturo Calvo", "m": 131}, "geometry": {"type": "LineString", "coordinates": [[-70.6649863, -33.4622835], [-70.6638072, -33.46228]]}}, {"type": "Feature", "properties": {"nombre": "Arturo Glaziou", "m": 130}, "geometry": {"type": "LineString", "coordinates": [[-70.6554798, -33.4667909], [-70.6555538, -33.465629]]}}, {"type": "Feature", "properties": {"nombre": "Autopista Central", "m": 3040}, "geometry": {"type": "LineString", "coordinates": [[-70.65534258, -33.47246389009081], [-70.6559549, -33.4715357], [-70.6561067, -33.471149], [-70.6561641, -33.4708264], [-70.6563257, -33.4664248], [-70.656735, -33.4600362], [-70.6566046, -33.4579022], [-70.6567535, -33.4565215], [-70.6569795, -33.4558921], [-70.6578308, -33.4547374], [-70.6580448, -33.4542806], [-70.6601193, -33.4471126], [-70.66027464472994, -33.4460775]]}}, {"type": "Feature", "properties": {"nombre": "Autopista Central", "m": 3116}, "geometry": {"type": "LineString", "coordinates": [[-70.66065801465295, -33.4460775], [-70.6604053, -33.4474614], [-70.6599024, -33.4489625], [-70.6583313, -33.4544062], [-70.6580476, -33.4549718], [-70.6571974, -33.456103], [-70.6569815, -33.4567274], [-70.6568648, -33.457919], [-70.6570619, -33.460122], [-70.6566764, -33.4658861], [-70.656468, -33.4709031], [-70.6563972, -33.4712655], [-70.6562369, -33.4716718], [-70.65534258, -33.473019396811026]]}}, {"type": "Feature", "properties": {"nombre": "Bascuñán Guerrero", "m": 3008}, "geometry": {"type": "LineString", "coordinates": [[-70.67159402686981, -33.4764195], [-70.6717189, -33.4665451], [-70.6756376, -33.449856]]}}, {"type": "Feature", "properties": {"nombre": "Beaucheff", "m": 166}, "geometry": {"type": "LineString", "coordinates": [[-70.6639389, -33.4584662], [-70.6640405, -33.4569812]]}}, {"type": "Feature", "properties": {"nombre": "Beaucheff", "m": 1272}, "geometry": {"type": "LineString", "coordinates": [[-70.6634416, -33.4704559], [-70.663939, -33.4590373]]}}, {"type": "Feature", "properties": {"nombre": "Beaucheff", "m": 316}, "geometry": {"type": "LineString", "coordinates": [[-70.6633069, -33.4736439], [-70.6634328, -33.4708066]]}}, {"type": "Feature", "properties": {"nombre": "Benavides", "m": 164}, "geometry": {"type": "LineString", "coordinates": [[-70.6641694, -33.4556448], [-70.6627052, -33.4554681]]}}, {"type": "Feature", "properties": {"nombre": "Blanco Cuartin", "m": 398}, "geometry": {"type": "LineString", "coordinates": [[-70.6720956, -33.4719147], [-70.6721395, -33.4683382]]}}, {"type": "Feature", "properties": {"nombre": "Brasil", "m": 304}, "geometry": {"type": "LineString", "coordinates": [[-70.66477151659626, -33.4460775], [-70.6646831, -33.4468921], [-70.6648006, -33.4473983], [-70.6646694, -33.4472702], [-70.6645614, -33.446762], [-70.66464111959104, -33.4460775]]}}, {"type": "Feature", "properties": {"nombre": "Cabo Arestey", "m": 92}, "geometry": {"type": "LineString", "coordinates": [[-70.6702702, -33.4496557], [-70.6710647, -33.4498675]]}}, {"type": "Feature", "properties": {"nombre": "Camino Melipilla", "m": 371}, "geometry": {"type": "LineString", "coordinates": [[-70.6770043, -33.4665932], [-70.6789119, -33.469008], [-70.6791285, -33.4691406]]}}, {"type": "Feature", "properties": {"nombre": "Capitán Wood", "m": 139}, "geometry": {"type": "LineString", "coordinates": [[-70.6621355, -33.4715354], [-70.6622433, -33.4702902]]}}, {"type": "Feature", "properties": {"nombre": "Carlos Caszely Garrido", "m": 143}, "geometry": {"type": "LineString", "coordinates": [[-70.6729104, -33.474857], [-70.6716293, -33.4748325]]}}, {"type": "Feature", "properties": {"nombre": "Castor Villarín", "m": 96}, "geometry": {"type": "LineString", "coordinates": [[-70.6715188, -33.4472932], [-70.6714635, -33.4477637], [-70.6718395, -33.4478493]]}}, {"type": "Feature", "properties": {"nombre": "Centenario", "m": 1837}, "geometry": {"type": "LineString", "coordinates": [[-70.6718094, -33.4758823], [-70.6703323, -33.4758081], [-70.6618443, -33.4757093], [-70.6559452, -33.4762719], [-70.6555659, -33.4762981], [-70.65534258, -33.47625238695652]]}}, {"type": "Feature", "properties": {"nombre": "Chacabuco", "m": 489}, "geometry": {"type": "LineString", "coordinates": [[-70.6778987, -33.4504547], [-70.67829166598618, -33.4460775]]}}, {"type": "Feature", "properties": {"nombre": "Claudio Gay", "m": 2017}, "geometry": {"type": "LineString", "coordinates": [[-70.6586444, -33.4539872], [-70.6764123, -33.4575259]]}}, {"type": "Feature", "properties": {"nombre": "Club Hípico", "m": 224}, "geometry": {"type": "LineString", "coordinates": [[-70.664841, -33.4757237], [-70.6647951, -33.4756281], [-70.6648251, -33.473721]]}}, {"type": "Feature", "properties": {"nombre": "Club Hípico", "m": 2687}, "geometry": {"type": "LineString", "coordinates": [[-70.6648128, -33.4516083], [-70.6650846, -33.4532009], [-70.664841, -33.4757237]]}}, {"type": "Feature", "properties": {"nombre": "Comandante Chacón", "m": 97}, "geometry": {"type": "LineString", "coordinates": [[-70.65534258, -33.46561638156622], [-70.6562113, -33.4656682]]}}, {"type": "Feature", "properties": {"nombre": "Concha Castillo", "m": 141}, "geometry": {"type": "LineString", "coordinates": [[-70.6729205, -33.4726961], [-70.6716548, -33.4726804]]}}, {"type": "Feature", "properties": {"nombre": "Conferencia", "m": 590}, "geometry": {"type": "LineString", "coordinates": [[-70.6761827, -33.4584846], [-70.6771489, -33.4543575], [-70.6771904, -33.4532929]]}}, {"type": "Feature", "properties": {"nombre": "Conferencia", "m": 1345}, "geometry": {"type": "LineString", "coordinates": [[-70.6742645, -33.47063], [-70.6743198, -33.4664941], [-70.6761163, -33.4587545]]}}, {"type": "Feature", "properties": {"nombre": "Coronel Pantoja", "m": 242}, "geometry": {"type": "LineString", "coordinates": [[-70.6595449, -33.4473985], [-70.6592123, -33.4484913], [-70.6592441, -33.4485886], [-70.6590403, -33.4494144], [-70.6589693, -33.4494515]]}}, {"type": "Feature", "properties": {"nombre": "Corte Suprema", "m": 113}, "geometry": {"type": "LineString", "coordinates": [[-70.6562057, -33.4480907], [-70.6560307, -33.4490888]]}}, {"type": "Feature", "properties": {"nombre": "Cura Gómez", "m": 145}, "geometry": {"type": "LineString", "coordinates": [[-70.6729945, -33.4679117], [-70.6716915, -33.4679073]]}}, {"type": "Feature", "properties": {"nombre": "Delirio", "m": 131}, "geometry": {"type": "LineString", "coordinates": [[-70.6781055, -33.4706608], [-70.6781196, -33.4694825]]}}, {"type": "Feature", "properties": {"nombre": "Dieciocho", "m": 1165}, "geometry": {"type": "LineString", "coordinates": [[-70.6562543, -33.4563111], [-70.6584399680419, -33.4460775]]}}, {"type": "Feature", "properties": {"nombre": "Diego de Rosales", "m": 271}, "geometry": {"type": "LineString", "coordinates": [[-70.6564621, -33.4505803], [-70.6571364, -33.4505358], [-70.658695, -33.4507032], [-70.6588812, -33.4506652]]}}, {"type": "Feature", "properties": {"nombre": "Diez de Julio Huamachuco", "m": 265}, "geometry": {"type": "LineString", "coordinates": [[-70.65534258, -33.45446644688789], [-70.6577184, -33.4545399]]}}, {"type": "Feature", "properties": {"nombre": "Doctor Allende Padín", "m": 159}, "geometry": {"type": "LineString", "coordinates": [[-70.6634966, -33.4692398], [-70.6649261, -33.4692819]]}}, {"type": "Feature", "properties": {"nombre": "Doctor Díaz Velasco", "m": 250}, "geometry": {"type": "LineString", "coordinates": [[-70.6671384, -33.4712673], [-70.6670503, -33.4712129], [-70.6649077, -33.4711742]]}}, {"type": "Feature", "properties": {"nombre": "Domeyko", "m": 414}, "geometry": {"type": "LineString", "coordinates": [[-70.6702819, -33.4573679], [-70.6666173, -33.4567107]]}}, {"type": "Feature", "properties": {"nombre": "Domeyko", "m": 893}, "geometry": {"type": "LineString", "coordinates": [[-70.6660672, -33.4566358], [-70.6581948, -33.4550892]]}}, {"type": "Feature", "properties": {"nombre": "Echaurren", "m": 865}, "geometry": {"type": "LineString", "coordinates": [[-70.6661718, -33.4554849], [-70.6665549, -33.4477227]]}}, {"type": "Feature", "properties": {"nombre": "Ejército Libertador", "m": 1372}, "geometry": {"type": "LineString", "coordinates": [[-70.6617205, -33.4461965], [-70.6617216, -33.4463256], [-70.6615647, -33.4467055], [-70.6603027, -33.4531342], [-70.6596543, -33.4565632], [-70.6597007, -33.4566616], [-70.659398, -33.4582638]]}}, {"type": "Feature", "properties": {"nombre": "El Mirador", "m": 2244}, "geometry": {"type": "LineString", "coordinates": [[-70.6648251, -33.473721], [-70.6648681, -33.4735108], [-70.671469, -33.4664842], [-70.671595, -33.4664147], [-70.6717434, -33.4664268], [-70.6709922, -33.4671448], [-70.6648945, -33.4737233]]}}, {"type": "Feature", "properties": {"nombre": "El Parque", "m": 126}, "geometry": {"type": "LineString", "coordinates": [[-70.6638649, -33.4609593], [-70.6649999, -33.4609783]]}}, {"type": "Feature", "properties": {"nombre": "El Rosedal", "m": 174}, "geometry": {"type": "LineString", "coordinates": [[-70.6678491, -33.4734537], [-70.6678752, -33.4718919]]}}, {"type": "Feature", "properties": {"nombre": "Eleuterio Ramírez", "m": 126}, "geometry": {"type": "LineString", "coordinates": [[-70.65534258, -33.45040824817912], [-70.6564621, -33.4505803]]}}, {"type": "Feature", "properties": {"nombre": "Elisa del Carmen Escobar Cepeda", "m": 608}, "geometry": {"type": "LineString", "coordinates": [[-70.6784492, -33.468391], [-70.6729859, -33.4683449]]}}, {"type": "Feature", "properties": {"nombre": "Erasmo Escala", "m": 362}, "geometry": {"type": "LineString", "coordinates": [[-70.6793156, -33.4463373], [-70.6782723, -33.4463118], [-70.67607665992331, -33.4460775]]}}, {"type": "Feature", "properties": {"nombre": "España", "m": 1040}, "geometry": {"type": "LineString", "coordinates": [[-70.6704911, -33.4487132], [-70.6683431, -33.4578032]]}}, {"type": "Feature", "properties": {"nombre": "Esperanza", "m": 390}, "geometry": {"type": "LineString", "coordinates": [[-70.67509734602316, -33.4460775], [-70.6743477, -33.4495031]]}}, {"type": "Feature", "properties": {"nombre": "Espiñeira", "m": 598}, "geometry": {"type": "LineString", "coordinates": [[-70.6715724, -33.4646519], [-70.6768571, -33.4656195]]}}, {"type": "Feature", "properties": {"nombre": "Exposición", "m": 2301}, "geometry": {"type": "LineString", "coordinates": [[-70.6778987, -33.4504547], [-70.6778484, -33.4511367], [-70.6791465, -33.4692967], [-70.6792867, -33.4696675], [-70.6797769, -33.4704025], [-70.6800032, -33.470549], [-70.6802325, -33.4705689]]}}, {"type": "Feature", "properties": {"nombre": "Exposición", "m": 131}, "geometry": {"type": "LineString", "coordinates": [[-70.6790561, -33.4694897], [-70.6791112, -33.4706686]]}}, {"type": "Feature", "properties": {"nombre": "Florencio Bahamondes", "m": 208}, "geometry": {"type": "LineString", "coordinates": [[-70.667869, -33.4757797], [-70.6679232, -33.4739097]]}}, {"type": "Feature", "properties": {"nombre": "Francisco Pizarro", "m": 836}, "geometry": {"type": "LineString", "coordinates": [[-70.6703323, -33.4758081], [-70.6703782, -33.4706611], [-70.6702936, -33.4705462], [-70.6702945, -33.4683232]]}}, {"type": "Feature", "properties": {"nombre": "Fray Luis de la Peña", "m": 800}, "geometry": {"type": "LineString", "coordinates": [[-70.6787532, -33.463397], [-70.6777538, -33.463389], [-70.6763447, -33.4632437], [-70.6716537, -33.4623633]]}}, {"type": "Feature", "properties": {"nombre": "Fundición Libertad", "m": 155}, "geometry": {"type": "LineString", "coordinates": [[-70.6736001, -33.4464922], [-70.6722251, -33.4462762]]}}, {"type": "Feature", "properties": {"nombre": "Fábrica", "m": 354}, "geometry": {"type": "LineString", "coordinates": [[-70.6572162, -33.4701116], [-70.6570413, -33.4732856]]}}, {"type": "Feature", "properties": {"nombre": "García Reyes", "m": 301}, "geometry": {"type": "LineString", "coordinates": [[-70.67089952268041, -33.4460775], [-70.6706374, -33.4470192], [-70.6703992, -33.4484304], [-70.6704911, -33.4487132]]}}, {"type": "Feature", "properties": {"nombre": "Gaspar de la Barrera", "m": 737}, "geometry": {"type": "LineString", "coordinates": [[-70.6775068, -33.4671924], [-70.6709922, -33.4671448], [-70.6708936, -33.467099]]}}, {"type": "Feature", "properties": {"nombre": "General Gana", "m": 345}, "geometry": {"type": "LineString", "coordinates": [[-70.6595612, -33.4717293], [-70.6564688, -33.4715617]]}}, {"type": "Feature", "properties": {"nombre": "General González Balcarce", "m": 278}, "geometry": {"type": "LineString", "coordinates": [[-70.6609104, -33.4714559], [-70.6634056, -33.4716129]]}}, {"type": "Feature", "properties": {"nombre": "General Jarpa", "m": 227}, "geometry": {"type": "LineString", "coordinates": [[-70.6747648, -33.461796], [-70.6752357, -33.459809]]}}, {"type": "Feature", "properties": {"nombre": "General Rondizzoni", "m": 916}, "geometry": {"type": "LineString", "coordinates": [[-70.671669, -33.4706107], [-70.6634416, -33.4704559]]}}, {"type": "Feature", "properties": {"nombre": "General Rondizzoni", "m": 766}, "geometry": {"type": "LineString", "coordinates": [[-70.6634416, -33.4704559], [-70.656574, -33.4700933]]}}, {"type": "Feature", "properties": {"nombre": "General Rondizzoni", "m": 768}, "geometry": {"type": "LineString", "coordinates": [[-70.6565816, -33.4699929], [-70.663086, -33.4703394], [-70.6633419, -33.47038], [-70.6634416, -33.4704559]]}}, {"type": "Feature", "properties": {"nombre": "Gorbea", "m": 2147}, "geometry": {"type": "LineString", "coordinates": [[-70.6593212, -33.451585], [-70.6594485, -33.451723], [-70.659955, -33.4518344], [-70.6768635, -33.4553758], [-70.6781553, -33.4555379]]}}, {"type": "Feature", "properties": {"nombre": "Grajales", "m": 2101}, "geometry": {"type": "LineString", "coordinates": [[-70.6780827, -33.454539], [-70.6596544, -33.4504592]]}}, {"type": "Feature", "properties": {"nombre": "Guacolda", "m": 601}, "geometry": {"type": "LineString", "coordinates": [[-70.676864, -33.4644781], [-70.6715553, -33.4635051]]}}, {"type": "Feature", "properties": {"nombre": "Herboso", "m": 121}, "geometry": {"type": "LineString", "coordinates": [[-70.6555677, -33.4544706], [-70.6554352, -33.4546278], [-70.65534258, -33.455500445315096]]}}, {"type": "Feature", "properties": {"nombre": "Iquique", "m": 124}, "geometry": {"type": "LineString", "coordinates": [[-70.6792753, -33.4640222], [-70.6803891, -33.4640569]]}}, {"type": "Feature", "properties": {"nombre": "Iquique", "m": 124}, "geometry": {"type": "LineString", "coordinates": [[-70.6803891, -33.4640569], [-70.6792753, -33.4640222]]}}, {"type": "Feature", "properties": {"nombre": "Isabel Riquelme", "m": 471}, "geometry": {"type": "LineString", "coordinates": [[-70.66541985999999, -33.4764195], [-70.664833, -33.4763107], [-70.6622668, -33.4762503], [-70.6617623, -33.4762834], [-70.66121766618558, -33.4764195]]}}, {"type": "Feature", "properties": {"nombre": "Isabel Riquelme", "m": 553}, "geometry": {"type": "LineString", "coordinates": [[-70.660931025, -33.4764195], [-70.6616795, -33.4761777], [-70.662602, -33.4761049], [-70.664911, -33.4761411], [-70.66581765384615, -33.4764195]]}}, {"type": "Feature", "properties": {"nombre": "José Miguel Carrera", "m": 1106}, "geometry": {"type": "LineString", "coordinates": [[-70.6625008, -33.4570243], [-70.6634207, -33.450012], [-70.6636293, -33.4478981], [-70.6638359, -33.4471934]]}}, {"type": "Feature", "properties": {"nombre": "Juan Nepomuceno Espejo", "m": 240}, "geometry": {"type": "LineString", "coordinates": [[-70.6722817, -33.474845], [-70.6723035, -33.4726884]]}}, {"type": "Feature", "properties": {"nombre": "Juan Yarur", "m": 156}, "geometry": {"type": "LineString", "coordinates": [[-70.6640223, -33.473465], [-70.6640717, -33.4720619]]}}, {"type": "Feature", "properties": {"nombre": "Jécar Antonio Nehgme Cristi", "m": 227}, "geometry": {"type": "LineString", "coordinates": [[-70.6691135, -33.4480896], [-70.66943853967594, -33.4460775]]}}, {"type": "Feature", "properties": {"nombre": "Las Azucenas", "m": 178}, "geometry": {"type": "LineString", "coordinates": [[-70.6683462, -33.473489], [-70.6683666, -33.4718939]]}}, {"type": "Feature", "properties": {"nombre": "Las Flores", "m": 147}, "geometry": {"type": "LineString", "coordinates": [[-70.6691329, -33.4718974], [-70.6691499, -33.4705771]]}}, {"type": "Feature", "properties": {"nombre": "Las Fucsias", "m": 435}, "geometry": {"type": "LineString", "coordinates": [[-70.6693261, -33.4758035], [-70.6693792, -33.4718989]]}}, {"type": "Feature", "properties": {"nombre": "Libertad", "m": 350}, "geometry": {"type": "LineString", "coordinates": [[-70.6729574, -33.4491265], [-70.6730372, -33.4489765], [-70.67369231691079, -33.4460775]]}}, {"type": "Feature", "properties": {"nombre": "Libertador Bernardo O'Higgins", "m": 2230}, "geometry": {"type": "LineString", "coordinates": [[-70.66121227998039, -33.4460775], [-70.6659253, -33.44719], [-70.6675762, -33.4476863], [-70.6765448, -33.4501016], [-70.6796488, -33.4508771], [-70.6800223, -33.4510142], [-70.68053242, -33.45130016456545]]}}, {"type": "Feature", "properties": {"nombre": "Libertador Bernardo O'Higgins", "m": 2495}, "geometry": {"type": "LineString", "coordinates": [[-70.68053242, -33.451502787263294], [-70.6800129, -33.4512021], [-70.6796625, -33.4510739], [-70.6775104, -33.4506102], [-70.6673837, -33.4478782], [-70.6641336, -33.4472588], [-70.6588195277311, -33.4460775]]}}, {"type": "Feature", "properties": {"nombre": "Lincoln", "m": 294}, "geometry": {"type": "LineString", "coordinates": [[-70.6784858, -33.4602285], [-70.6758937, -33.4597078]]}}, {"type": "Feature", "properties": {"nombre": "Lincoln", "m": 139}, "geometry": {"type": "LineString", "coordinates": [[-70.6758428, -33.4599256], [-70.6746136, -33.4596897]]}}, {"type": "Feature", "properties": {"nombre": "Lincoln", "m": 292}, "geometry": {"type": "LineString", "coordinates": [[-70.6746635, -33.459475], [-70.672093, -33.4589672]]}}, {"type": "Feature", "properties": {"nombre": "Longaví", "m": 398}, "geometry": {"type": "LineString", "coordinates": [[-70.6724959, -33.4719185], [-70.6725372, -33.4683414]]}}, {"type": "Feature", "properties": {"nombre": "Los Canelos", "m": 132}, "geometry": {"type": "LineString", "coordinates": [[-70.6749221, -33.4683638], [-70.674942, -33.4671742]]}}, {"type": "Feature", "properties": {"nombre": "Los Retamos", "m": 168}, "geometry": {"type": "LineString", "coordinates": [[-70.6689203, -33.4757968], [-70.6689307, -33.4747615], [-70.6691174, -33.4743282]]}}, {"type": "Feature", "properties": {"nombre": "Los Tulipanes", "m": 442}, "geometry": {"type": "LineString", "coordinates": [[-70.6685373, -33.4757911], [-70.6685659, -33.4746221], [-70.6688569, -33.4740734], [-70.6688811, -33.4718948]]}}, {"type": "Feature", "properties": {"nombre": "Luis Cousiño", "m": 367}, "geometry": {"type": "LineString", "coordinates": [[-70.6594364, -33.4734281], [-70.6596778, -33.4701425]]}}, {"type": "Feature", "properties": {"nombre": "Luis Risopatrón", "m": 161}, "geometry": {"type": "LineString", "coordinates": [[-70.6649219, -33.4696524], [-70.6634793, -33.4696142]]}}, {"type": "Feature", "properties": {"nombre": "Mac Clure", "m": 109}, "geometry": {"type": "LineString", "coordinates": [[-70.65534258, -33.463589374817985], [-70.6563142, -33.4636913]]}}, {"type": "Feature", "properties": {"nombre": "Maipú", "m": 231}, "geometry": {"type": "LineString", "coordinates": [[-70.6762086, -33.4481528], [-70.67627864417078, -33.4460775]]}}, {"type": "Feature", "properties": {"nombre": "Maipú", "m": 196}, "geometry": {"type": "LineString", "coordinates": [[-70.6756376, -33.449856], [-70.6760033, -33.4481334]]}}, {"type": "Feature", "properties": {"nombre": "Manuel Antonio Matta", "m": 126}, "geometry": {"type": "LineString", "coordinates": [[-70.65534258, -33.460215454646274], [-70.6564626, -33.4603453]]}}, {"type": "Feature", "properties": {"nombre": "Manuel Antonio Matta", "m": 125}, "geometry": {"type": "LineString", "coordinates": [[-70.6564576, -33.4605268], [-70.65534258, -33.46040010294643]]}}, {"type": "Feature", "properties": {"nombre": "Manuel Montt", "m": 133}, "geometry": {"type": "LineString", "coordinates": [[-70.6671146, -33.4497367], [-70.6670334, -33.450928]]}}, {"type": "Feature", "properties": {"nombre": "Manuel Rodríguez Sur", "m": 981}, "geometry": {"type": "LineString", "coordinates": [[-70.6607084, -33.446515], [-70.6605636, -33.4473954], [-70.6585298, -33.4543788], [-70.6582072, -33.4549383]]}}, {"type": "Feature", "properties": {"nombre": "Manuel Rodríguez Sur", "m": 1196}, "geometry": {"type": "LineString", "coordinates": [[-70.6567394, -33.4564012], [-70.6568849, -33.4557181], [-70.657652, -33.454649], [-70.6578384, -33.4542541], [-70.6594256, -33.448779], [-70.6598575, -33.4479974], [-70.6600912, -33.4473958], [-70.6604982, -33.446835], [-70.6605951, -33.4464867]]}}, {"type": "Feature", "properties": {"nombre": "Manuel Rodríguez Sur", "m": 112}, "geometry": {"type": "LineString", "coordinates": [[-70.6596905, -33.4530104], [-70.6594491, -33.4534044], [-70.6591995, -33.4535074], [-70.6589289, -33.4535135]]}}, {"type": "Feature", "properties": {"nombre": "Manuel Rodríguez Sur", "m": 190}, "geometry": {"type": "LineString", "coordinates": [[-70.6582072, -33.4549383], [-70.6577784, -33.4564251], [-70.6576659, -33.456539]]}}, {"type": "Feature", "properties": {"nombre": "Manuel Rodríguez Sur", "m": 225}, "geometry": {"type": "LineString", "coordinates": [[-70.6582072, -33.4549383], [-70.6573147, -33.4558905], [-70.6570029, -33.4565355]]}}, {"type": "Feature", "properties": {"nombre": "Manuel de Amat", "m": 332}, "geometry": {"type": "LineString", "coordinates": [[-70.6729859, -33.4683449], [-70.6702945, -33.4683232], [-70.6700471, -33.4681779]]}}, {"type": "Feature", "properties": {"nombre": "Maquinista Escobar", "m": 754}, "geometry": {"type": "LineString", "coordinates": [[-70.6785876, -33.4614007], [-70.671943, -33.4600916]]}}, {"type": "Feature", "properties": {"nombre": "Marsella", "m": 150}, "geometry": {"type": "LineString", "coordinates": [[-70.6649357, -33.4673316], [-70.663592, -33.4672412]]}}, {"type": "Feature", "properties": {"nombre": "Matucana", "m": 91}, "geometry": {"type": "LineString", "coordinates": [[-70.67946347132867, -33.4460775], [-70.6794071, -33.4466394], [-70.6793267, -33.4468752]]}}, {"type": "Feature", "properties": {"nombre": "Matucana", "m": 430}, "geometry": {"type": "LineString", "coordinates": [[-70.678994, -33.4507192], [-70.6793267, -33.4468752]]}}, {"type": "Feature", "properties": {"nombre": "Nueva Exposición", "m": 160}, "geometry": {"type": "LineString", "coordinates": [[-70.6791112, -33.4706686], [-70.6791367, -33.4721058]]}}, {"type": "Feature", "properties": {"nombre": "Obispo Edwards", "m": 106}, "geometry": {"type": "LineString", "coordinates": [[-70.662051, -33.4568079], [-70.6621726, -33.4558655]]}}, {"type": "Feature", "properties": {"nombre": "Padre Miguel de Olivares", "m": 407}, "geometry": {"type": "LineString", "coordinates": [[-70.6589693, -33.4494515], [-70.65534258, -33.44901206463047]]}}, {"type": "Feature", "properties": {"nombre": "Pedro Montt", "m": 1267}, "geometry": {"type": "LineString", "coordinates": [[-70.6559098, -33.473011], [-70.6657268, -33.4735703], [-70.6672766, -33.473607]]}}, {"type": "Feature", "properties": {"nombre": "Pedro Montt", "m": 271}, "geometry": {"type": "LineString", "coordinates": [[-70.6672766, -33.473607], [-70.6672969, -33.473504], [-70.6673926, -33.4734537], [-70.6680065, -33.4734582], [-70.6681837, -33.4735333], [-70.6682578, -33.4736734], [-70.6681969, -33.4738305], [-70.6680351, -33.4739084], [-70.66736, -33.4738987], [-70.6672762, -33.4738277], [-70.6672743, -33.4737065]]}}, {"type": "Feature", "properties": {"nombre": "Pedro Montt", "m": 1327}, "geometry": {"type": "LineString", "coordinates": [[-70.6672743, -33.4737065], [-70.6656789, -33.4736715], [-70.6654123, -33.4737459], [-70.6649987, -33.4737311], [-70.6553785, -33.4731886]]}}, {"type": "Feature", "properties": {"nombre": "Pilcomayo", "m": 142}, "geometry": {"type": "LineString", "coordinates": [[-70.6729128, -33.4737273], [-70.671642, -33.4737623]]}}, {"type": "Feature", "properties": {"nombre": "Plaza Ercilla", "m": 153}, "geometry": {"type": "LineString", "coordinates": [[-70.6605481, -33.4569953], [-70.6604829, -33.4571312], [-70.6604301, -33.4583568]]}}, {"type": "Feature", "properties": {"nombre": "Plaza Ercilla", "m": 222}, "geometry": {"type": "LineString", "coordinates": [[-70.659804, -33.4582948], [-70.6600913, -33.4582316], [-70.6602448, -33.4580603], [-70.6603079, -33.457153], [-70.6602565, -33.456905], [-70.660431, -33.4566556]]}}, {"type": "Feature", "properties": {"nombre": "Primero de Mayo", "m": 126}, "geometry": {"type": "LineString", "coordinates": [[-70.6732803, -33.4626638], [-70.6735385, -33.4615663]]}}, {"type": "Feature", "properties": {"nombre": "Puerta de Vera", "m": 506}, "geometry": {"type": "LineString", "coordinates": [[-70.6763447, -33.4632437], [-70.6767865, -33.4621748], [-70.6775264, -33.4588652]]}}, {"type": "Feature", "properties": {"nombre": "Pérez Freire", "m": 138}, "geometry": {"type": "LineString", "coordinates": [[-70.6609982, -33.470219], [-70.6609104, -33.4714559]]}}, {"type": "Feature", "properties": {"nombre": "Quidora", "m": 140}, "geometry": {"type": "LineString", "coordinates": [[-70.6747862, -33.4644737], [-70.6735451, -33.464248]]}}, {"type": "Feature", "properties": {"nombre": "Quinta Normal", "m": 110}, "geometry": {"type": "LineString", "coordinates": [[-70.6792416, -33.4478923], [-70.6802258, -33.4479116]]}}, {"type": "Feature", "properties": {"nombre": "Rafael Sotomayor", "m": 308}, "geometry": {"type": "LineString", "coordinates": [[-70.67227816458823, -33.4460775], [-70.6719305, -33.4473791], [-70.6716573, -33.4487737]]}}, {"type": "Feature", "properties": {"nombre": "Raimundo Larraín", "m": 147}, "geometry": {"type": "LineString", "coordinates": [[-70.6649473, -33.4665014], [-70.6636265, -33.4664481]]}}, {"type": "Feature", "properties": {"nombre": "Ramón Subercaseaux", "m": 951}, "geometry": {"type": "LineString", "coordinates": [[-70.6802107, -33.4706564], [-70.671669, -33.4706107]]}}, {"type": "Feature", "properties": {"nombre": "República", "m": 713}, "geometry": {"type": "LineString", "coordinates": [[-70.6671681, -33.4544297], [-70.6683701, -33.4481373]]}}, {"type": "Feature", "properties": {"nombre": "República", "m": 329}, "geometry": {"type": "LineString", "coordinates": [[-70.6671681, -33.4544297], [-70.6665881, -33.4573283]]}}, {"type": "Feature", "properties": {"nombre": "República", "m": 352}, "geometry": {"type": "LineString", "coordinates": [[-70.6664669, -33.4574716], [-70.6670581, -33.4544936], [-70.6671681, -33.4544297]]}}, {"type": "Feature", "properties": {"nombre": "Ricardo Cumming", "m": 181}, "geometry": {"type": "LineString", "coordinates": [[-70.66777706984692, -33.4460775], [-70.6676889, -33.4472696], [-70.6675762, -33.4476863]]}}, {"type": "Feature", "properties": {"nombre": "Ricardo Cumming", "m": 179}, "geometry": {"type": "LineString", "coordinates": [[-70.6674481, -33.4476505], [-70.667536, -33.4475089], [-70.6675749, -33.4472855], [-70.66766084567067, -33.4460775]]}}, {"type": "Feature", "properties": {"nombre": "Rodulfo Amado Philippi", "m": 193}, "geometry": {"type": "LineString", "coordinates": [[-70.6738551, -33.4496236], [-70.6733988, -33.4513]]}}, {"type": "Feature", "properties": {"nombre": "Romero", "m": 1464}, "geometry": {"type": "LineString", "coordinates": [[-70.66663110624343, -33.4460775], [-70.6706695, -33.4471047], [-70.6746625, -33.447985], [-70.679535, -33.4484432]]}}, {"type": "Feature", "properties": {"nombre": "Salvador Sanfuentes", "m": 1198}, "geometry": {"type": "LineString", "coordinates": [[-70.6752055, -33.4517369], [-70.664761, -33.4491544]]}}, {"type": "Feature", "properties": {"nombre": "San Agustín", "m": 397}, "geometry": {"type": "LineString", "coordinates": [[-70.6716346, -33.474386], [-70.6692291, -33.4743693], [-70.6682213, -33.4738014]]}}, {"type": "Feature", "properties": {"nombre": "San Alfonso", "m": 2984}, "geometry": {"type": "LineString", "coordinates": [[-70.6767554, -33.4504082], [-70.6766662, -33.450928], [-70.6763226, -33.4518679], [-70.6763886, -33.4521762], [-70.6730486, -33.4663861], [-70.6728962, -33.4749379], [-70.672808, -33.4752026], [-70.6725907, -33.4755359], [-70.6718396, -33.475861], [-70.6717544, -33.4759572], [-70.6717256, -33.4761452]]}}, {"type": "Feature", "properties": {"nombre": "San Alfredo", "m": 141}, "geometry": {"type": "LineString", "coordinates": [[-70.6734678, -33.4645752], [-70.6747102, -33.4648011]]}}, {"type": "Feature", "properties": {"nombre": "San Dionisio", "m": 896}, "geometry": {"type": "LineString", "coordinates": [[-70.6729308, -33.4719227], [-70.6666508, -33.4718979], [-70.6663835, -33.4718026], [-70.6648978, -33.4717871]]}}, {"type": "Feature", "properties": {"nombre": "San Dionisio", "m": 168}, "geometry": {"type": "LineString", "coordinates": [[-70.6633844, -33.4720054], [-70.6648929, -33.4721294]]}}, {"type": "Feature", "properties": {"nombre": "San Francisco de Borja", "m": 378}, "geometry": {"type": "LineString", "coordinates": [[-70.68053242, -33.451579465239], [-70.6803738, -33.451645], [-70.6803314, -33.4517767], [-70.68053242, -33.45485740537788]]}}, {"type": "Feature", "properties": {"nombre": "San Ignacio de Loyola", "m": 892}, "geometry": {"type": "LineString", "coordinates": [[-70.65727096379497, -33.4460775], [-70.6564621, -33.4505803], [-70.6556987, -33.4539296]]}}, {"type": "Feature", "properties": {"nombre": "San Ignacio de Loyola", "m": 833}, "geometry": {"type": "LineString", "coordinates": [[-70.6556987, -33.4539296], [-70.6559166, -33.4544814], [-70.65534258, -33.461343726087016]]}}, {"type": "Feature", "properties": {"nombre": "San Vicente", "m": 241}, "geometry": {"type": "LineString", "coordinates": [[-70.6774995, -33.4565812], [-70.6774469, -33.4544186]]}}, {"type": "Feature", "properties": {"nombre": "San Vicente", "m": 370}, "geometry": {"type": "LineString", "coordinates": [[-70.6768358, -33.4588057], [-70.6760929, -33.4620448]]}}, {"type": "Feature", "properties": {"nombre": "San Vicente", "m": 833}, "geometry": {"type": "LineString", "coordinates": [[-70.6755451, -33.4706403], [-70.6756114, -33.4664326], [-70.6763447, -33.4632437]]}}, {"type": "Feature", "properties": {"nombre": "Santa Isabel", "m": 400}, "geometry": {"type": "LineString", "coordinates": [[-70.6569674, -33.4528744], [-70.6574596, -33.4525264], [-70.6578922, -33.4523801], [-70.658387, -33.4524093], [-70.6592533, -33.452593], [-70.6595319, -33.452563], [-70.6597286, -33.4523946], [-70.6598457, -33.4519583], [-70.659955, -33.4518344]]}}, {"type": "Feature", "properties": {"nombre": "Santa Isabel", "m": 430}, "geometry": {"type": "LineString", "coordinates": [[-70.6590013, -33.4526548], [-70.6583038, -33.4525182], [-70.6580336, -33.4525387], [-70.6577786, -33.452647], [-70.6572877, -33.453045], [-70.6569144, -33.4531709], [-70.65534258, -33.45303367601523]]}}, {"type": "Feature", "properties": {"nombre": "Santa Margarita", "m": 548}, "geometry": {"type": "LineString", "coordinates": [[-70.6767732, -33.4721086], [-70.6768586, -33.4671877]]}}, {"type": "Feature", "properties": {"nombre": "Santiago", "m": 114}, "geometry": {"type": "LineString", "coordinates": [[-70.656362, -33.4627006], [-70.65534258, -33.462678807972026]]}}, {"type": "Feature", "properties": {"nombre": "Santiago Watt", "m": 153}, "geometry": {"type": "LineString", "coordinates": [[-70.6775696, -33.4706566], [-70.6775565, -33.4720329]]}}, {"type": "Feature", "properties": {"nombre": "Santiaguillo", "m": 120}, "geometry": {"type": "LineString", "coordinates": [[-70.6564194, -33.4614109], [-70.65534258, -33.46136117153333]]}}, {"type": "Feature", "properties": {"nombre": "Sazié", "m": 2169}, "geometry": {"type": "LineString", "coordinates": [[-70.6591756, -33.448899], [-70.659232, -33.4490578], [-70.6593404, -33.4491628], [-70.6599914, -33.4493344], [-70.6647277, -33.4502797], [-70.6677396, -33.4511077], [-70.67801, -33.4534786]]}}, {"type": "Feature", "properties": {"nombre": "Sazié", "m": 111}, "geometry": {"type": "LineString", "coordinates": [[-70.659977, -33.449381], [-70.659325, -33.4492501], [-70.6590403, -33.4494144]]}}, {"type": "Feature", "properties": {"nombre": "Sepúlveda Leyton", "m": 1127}, "geometry": {"type": "LineString", "coordinates": [[-70.6791902, -33.4694896], [-70.6695255, -33.4693788], [-70.6691206, -33.4691679]]}}, {"type": "Feature", "properties": {"nombre": "Siria", "m": 394}, "geometry": {"type": "LineString", "coordinates": [[-70.6682081, -33.4735578], [-70.6690835, -33.473142], [-70.6716492, -33.473155]]}}, {"type": "Feature", "properties": {"nombre": "Tattersal", "m": 111}, "geometry": {"type": "LineString", "coordinates": [[-70.68053242, -33.44849407184518], [-70.679535, -33.4484432]]}}, {"type": "Feature", "properties": {"nombre": "Toesca", "m": 2195}, "geometry": {"type": "LineString", "coordinates": [[-70.6782402, -33.4567283], [-70.6598219, -33.4530456], [-70.6596342, -33.4529846], [-70.6593757, -33.452743], [-70.6590013, -33.4526548]]}}, {"type": "Feature", "properties": {"nombre": "Tucapel", "m": 778}, "geometry": {"type": "LineString", "coordinates": [[-70.6786678, -33.4624783], [-70.6717941, -33.4612395]]}}, {"type": "Feature", "properties": {"nombre": "Tupper", "m": 109}, "geometry": {"type": "LineString", "coordinates": [[-70.6650164, -33.4586399], [-70.6640409, -33.4585918]]}}, {"type": "Feature", "properties": {"nombre": "Tupper", "m": 109}, "geometry": {"type": "LineString", "coordinates": [[-70.6640409, -33.4585039], [-70.6650135, -33.4585695]]}}, {"type": "Feature", "properties": {"nombre": "Tupper", "m": 384}, "geometry": {"type": "LineString", "coordinates": [[-70.6604396, -33.4582885], [-70.6638819, -33.458493]]}}, {"type": "Feature", "properties": {"nombre": "Tupper", "m": 639}, "geometry": {"type": "LineString", "coordinates": [[-70.6638638, -33.4585779], [-70.6581341, -33.4581668]]}}, {"type": "Feature", "properties": {"nombre": "Tupper", "m": 415}, "geometry": {"type": "LineString", "coordinates": [[-70.6564626, -33.4603453], [-70.6571785, -33.4604115], [-70.6575006, -33.4601951], [-70.6575746, -33.4600141], [-70.6575451, -33.4594432], [-70.6573744, -33.4587195], [-70.6573764, -33.4585236], [-70.6574982, -33.4583253], [-70.6576566, -33.4582133], [-70.6578813, -33.4581442], [-70.6581341, -33.4581668]]}}, {"type": "Feature", "properties": {"nombre": "Tupper", "m": 420}, "geometry": {"type": "LineString", "coordinates": [[-70.6581341, -33.4581668], [-70.657772, -33.4582574], [-70.6575601, -33.4585173], [-70.6577335, -33.4594141], [-70.6577488, -33.4599644], [-70.6576361, -33.4602714], [-70.6574512, -33.4604407], [-70.6572272, -33.4605491], [-70.6564576, -33.4605268]]}}, {"type": "Feature", "properties": {"nombre": "Unión Americana", "m": 1027}, "geometry": {"type": "LineString", "coordinates": [[-70.6743477, -33.4495031], [-70.6721939, -33.4584711]]}}, {"type": "Feature", "properties": {"nombre": "Vergara", "m": 1161}, "geometry": {"type": "LineString", "coordinates": [[-70.6609845, -33.4567107], [-70.6626077, -33.4464044]]}}, {"type": "Feature", "properties": {"nombre": "Victoria", "m": 104}, "geometry": {"type": "LineString", "coordinates": [[-70.65534258, -33.46445350588884], [-70.6562709, -33.4645631]]}}, {"type": "Feature", "properties": {"nombre": "Vidaurre", "m": 435}, "geometry": {"type": "LineString", "coordinates": [[-70.65534258, -33.44797838590204], [-70.6592123, -33.4484913]]}}, {"type": "Feature", "properties": {"nombre": "Viel", "m": 1789}, "geometry": {"type": "LineString", "coordinates": [[-70.6570029, -33.4565355], [-70.6568675, -33.4578088], [-70.6570682, -33.4587725], [-70.6571826, -33.4601561], [-70.6568199, -33.4656238], [-70.6565982, -33.4709937], [-70.6564688, -33.4715617], [-70.6559395, -33.4723883]]}}, {"type": "Feature", "properties": {"nombre": "Viel", "m": 1782}, "geometry": {"type": "LineString", "coordinates": [[-70.65534258, -33.472217953732454], [-70.6557961, -33.4715512], [-70.6559649, -33.4709902], [-70.6564551, -33.4606333], [-70.6565014, -33.4585338], [-70.6567394, -33.4564012]]}}, {"type": "Feature", "properties": {"nombre": "Viel", "m": 93}, "geometry": {"type": "LineString", "coordinates": [[-70.6559395, -33.4723883], [-70.655896, -33.4732183]]}}, {"type": "Feature", "properties": {"nombre": "Viel", "m": 116}, "geometry": {"type": "LineString", "coordinates": [[-70.6559395, -33.4723883], [-70.65534258, -33.47323947885118]]}}, {"type": "Feature", "properties": {"nombre": "Víctor Jara", "m": 142}, "geometry": {"type": "LineString", "coordinates": [[-70.6792942, -33.4507872], [-70.6798775, -33.4508424], [-70.68053242, -33.45105788143411]]}}, {"type": "Feature", "properties": {"nombre": "Íñiquez", "m": 135}, "geometry": {"type": "LineString", "coordinates": [[-70.6649647, -33.463509], [-70.6637554, -33.4634797]]}}, {"type": "Feature", "properties": {"nombre": "Ñuble", "m": 144}, "geometry": {"type": "LineString", "coordinates": [[-70.65534258, -33.47026555550667], [-70.6560074, -33.4699895], [-70.6565816, -33.4699929]]}}, {"type": "Feature", "properties": {"nombre": "Ñuble", "m": 143}, "geometry": {"type": "LineString", "coordinates": [[-70.656574, -33.4700933], [-70.6559421, -33.4701026], [-70.65534258, -33.47036669146026]]}}]}