{"type": "FeatureCollection", "features": [{"type": "Feature", "properties": {"n": 1, "nmanzanas": 6, "centro": [-70.677123, -33.451963], "color": "#830e40", "letras": "ABCDEF"}, "geometry": {"type": "Polygon", "coordinates": [[[-70.6779327, -33.4523097], [-70.6778672, -33.4513879], [-70.6778652, -33.4513482], [-70.6778484, -33.4511367], [-70.677843, -33.4510416], [-70.6778383, -33.450947], [-70.6778383, -33.4508625], [-70.6778462, -33.4507894], [-70.6778571, -33.4506958], [-70.6777485, -33.4506712], [-70.6775663, -33.450623], [-70.6775104, -33.4506102], [-70.6767554, -33.4504082], [-70.6767644, -33.4504642], [-70.6767685, -33.4504941], [-70.6767681, -33.4505269], [-70.6767601, -33.4505733], [-70.6767024, -33.4507971], [-70.6766662, -33.450928], [-70.6766152, -33.4510723], [-70.6763289, -33.4518495], [-70.6763226, -33.4518679], [-70.6763202, -33.4518869], [-70.6763219, -33.451906], [-70.6763551, -33.4520207], [-70.6763836, -33.4520937], [-70.6763893, -33.4521191], [-70.6763927, -33.4521477], [-70.6763886, -33.4521762], [-70.6761822, -33.4530001], [-70.6761664, -33.4530642], [-70.676244, -33.4530815], [-70.6771904, -33.4532929], [-70.677917, -33.4534576], [-70.67801, -33.4534786], [-70.6779396, -33.4524084], [-70.6779327, -33.4523097]]]}}, {"type": "Feature", "properties": {"n": 2, "nmanzanas": 5, "centro": [-70.675187, -33.451382], "color": "#f9e3b8", "letras": "ABCDE"}, "geometry": {"type": "Polygon", "coordinates": [[[-70.6738504, -33.4514772], [-70.6736659, -33.4522626], [-70.673632, -33.452408], [-70.6736174, -33.4524717], [-70.6736878, -33.452488], [-70.6748792, -33.452765], [-70.6749643, -33.4527841], [-70.6750432, -33.4528031], [-70.6760824, -33.4530447], [-70.6761664, -33.4530642], [-70.6761822, -33.4530001], [-70.6763886, -33.4521762], [-70.6763927, -33.4521477], [-70.6763893, -33.4521191], [-70.6763836, -33.4520937], [-70.6763551, -33.4520207], [-70.6763219, -33.451906], [-70.6763202, -33.4518869], [-70.6763226, -33.4518679], [-70.6763289, -33.4518495], [-70.6766152, -33.4510723], [-70.6766662, -33.450928], [-70.6767024, -33.4507971], [-70.6767601, -33.4505733], [-70.6767681, -33.4505269], [-70.6767685, -33.4504941], [-70.6767644, -33.4504642], [-70.6767554, -33.4504082], [-70.6757207, -33.4501311], [-70.6756766, -33.4501193], [-70.675596, -33.4500977], [-70.6754719, -33.4500637], [-70.6744383, -33.4497808], [-70.6743803, -33.4497649], [-70.6742837, -33.4497385], [-70.6742544, -33.4498568], [-70.6741582, -33.4502456], [-70.6740412, -33.4507121], [-70.673881, -33.4513509], [-70.6738655, -33.4514129], [-70.6738504, -33.4514772]]]}}, {"type": "Feature", "properties": {"n": 3, "nmanzanas": 5, "centro": [-70.672059, -33.450591], "color": "#652268", "letras": "ABCDE"}, "geometry": {"type": "Polygon", "coordinates": [[[-70.673468, -33.4524369], [-70.6735632, -33.452459], [-70.6736174, -33.4524717], [-70.673632, -33.452408], [-70.6736659, -33.4522626], [-70.6738504, -33.4514772], [-70.6738655, -33.4514129], [-70.673881, -33.4513509], [-70.6740412, -33.4507121], [-70.6741582, -33.4502456], [-70.6742544, -33.4498568], [-70.6742837, -33.4497385], [-70.6738551, -33.4496236], [-70.673373, -33.4494943], [-70.6732826, -33.44947], [-70.6728695, -33.4493592], [-70.672722, -33.4493189], [-70.6725236, -33.449265], [-70.6706721, -33.4487623], [-70.6706263, -33.4487499], [-70.6704911, -33.4487132], [-70.670466, -33.4488202], [-70.6702702, -33.4496557], [-70.6700891, -33.4504114], [-70.6700753, -33.4504691], [-70.6698394, -33.4514607], [-70.6698274, -33.4515111], [-70.6698088, -33.4515895], [-70.6708619, -33.4518332], [-70.672451, -33.452201], [-70.6725176, -33.452216], [-70.6725932, -33.4522336], [-70.673468, -33.4524369]]]}}, {"type": "Feature", "properties": {"n": 4, "nmanzanas": 4, "centro": [-70.669158, -33.449812], "color": "#80b2e2", "letras": "ABCD"}, "geometry": {"type": "Polygon", "coordinates": [[[-70.6679533, -33.45046], [-70.667903, -33.4507129], [-70.6678314, -33.4510721], [-70.6678206, -33.4511265], [-70.6679054, -33.451147], [-70.6696687, -33.4515569], [-70.6698088, -33.4515895], [-70.6698274, -33.4515111], [-70.6698394, -33.4514607], [-70.6700753, -33.4504691], [-70.6700891, -33.4504114], [-70.6702702, -33.4496557], [-70.670466, -33.4488202], [-70.6704911, -33.4487132], [-70.6693974, -33.4484217], [-70.6686048, -33.4482043], [-70.6685507, -33.4481895], [-70.6683701, -33.4481373], [-70.668355, -33.4482668], [-70.6683386, -33.4484081], [-70.6682756, -33.4487896], [-70.6681363, -33.4495411], [-70.6680535, -33.4499689], [-70.6680335, -33.4500573], [-70.6679533, -33.45046]]]}}, {"type": "Feature", "properties": {"n": 5, "nmanzanas": 9, "centro": [-70.666476, -33.449233], "color": "#1d9d4c", "letras": "ABCDEFGHI"}, "geometry": {"type": "Polygon", "coordinates": [[[-70.6678206, -33.4511265], [-70.6678314, -33.4510721], [-70.667903, -33.4507129], [-70.6679533, -33.45046], [-70.6680335, -33.4500573], [-70.6680535, -33.4499689], [-70.6681363, -33.4495411], [-70.6682756, -33.4487896], [-70.6683386, -33.4484081], [-70.668355, -33.4482668], [-70.6683701, -33.4481373], [-70.6682643, -33.4481078], [-70.6673837, -33.4478782], [-70.6673077, -33.4478617], [-70.6672443, -33.447848], [-70.6671733, -33.447834], [-70.6671216, -33.4478239], [-70.6665549, -33.4477227], [-70.6664047, -33.4476964], [-70.6659702, -33.4476158], [-70.665299, -33.4474922], [-70.6650029, -33.4474384], [-70.6649141, -33.4474222], [-70.6648006, -33.4473983], [-70.6648068, -33.44754], [-70.6648057, -33.4475789], [-70.6647653, -33.4490021], [-70.664761, -33.4491544], [-70.6647559, -33.4493112], [-70.6647452, -33.449642], [-70.6647303, -33.450185], [-70.6647277, -33.4502797], [-70.6650451, -33.4503705], [-70.6653824, -33.4504669], [-70.6655335, -33.4505102], [-70.6655948, -33.4505277], [-70.665702, -33.45056], [-70.6662917, -33.4507375], [-70.6663351, -33.4507506], [-70.666403, -33.450771], [-70.6664777, -33.4507896], [-70.6670334, -33.450928], [-70.6676378, -33.4510785], [-70.6677396, -33.4511077], [-70.6678206, -33.4511265]]]}}, {"type": "Feature", "properties": {"n": 6, "nmanzanas": 4, "centro": [-70.662585, -33.448024], "color": "#f46926", "letras": "ABCD"}, "geometry": {"type": "Polygon", "coordinates": [[[-70.6645831, -33.4502501], [-70.6647277, -33.4502797], [-70.6647303, -33.450185], [-70.6647452, -33.449642], [-70.6647559, -33.4493112], [-70.664761, -33.4491544], [-70.6647653, -33.4490021], [-70.6648057, -33.4475789], [-70.6648068, -33.44754], [-70.6648006, -33.4473983], [-70.6641336, -33.4472588], [-70.6640833, -33.4472477], [-70.6638359, -33.4471934], [-70.6626844, -33.4469432], [-70.6626413, -33.4469339], [-70.6625303, -33.4469092], [-70.6617057, -33.4467352], [-70.6615647, -33.4467055], [-70.6614361, -33.4466769], [-70.6608263, -33.4465412], [-70.6607888, -33.4465329], [-70.6607084, -33.446515], [-70.6606895, -33.4466421], [-70.6606387, -33.4470227], [-70.6606092, -33.4471995], [-70.6605636, -33.4473954], [-70.6604965, -33.4476304], [-70.6602584, -33.4484169], [-70.6600496, -33.4491348], [-70.6600176, -33.4492446], [-70.6599914, -33.4493344], [-70.6601691, -33.4493698], [-70.6608859, -33.449511], [-70.6610099, -33.4495354], [-70.6610927, -33.4495515], [-70.6619827, -33.4497291], [-70.6620701, -33.4497465], [-70.6632029, -33.4499702], [-70.6633725, -33.4500021], [-70.6634207, -33.450012], [-70.6635315, -33.4500349], [-70.6645831, -33.4502501]]]}}, {"type": "Feature", "properties": {"n": 7, "nmanzanas": 4, "centro": [-70.675691, -33.453504], "color": "#c3c210", "letras": "ABCD"}, "geometry": {"type": "Polygon", "coordinates": [[[-70.677917, -33.4534576], [-70.6771904, -33.4532929], [-70.676244, -33.4530815], [-70.6761664, -33.4530642], [-70.6760824, -33.4530447], [-70.6750432, -33.4528031], [-70.6749643, -33.4527841], [-70.6748792, -33.452765], [-70.6736878, -33.452488], [-70.6736174, -33.4524717], [-70.6733805, -33.453462], [-70.6733645, -33.4535291], [-70.6734159, -33.4535396], [-70.6746284, -33.453809], [-70.6747163, -33.4538285], [-70.6747929, -33.4538455], [-70.6748291, -33.4538535], [-70.6758518, -33.4540807], [-70.6759199, -33.4540958], [-70.6759681, -33.4541057], [-70.6761171, -33.4541375], [-70.6771489, -33.4543575], [-70.6774469, -33.4544186], [-70.6779721, -33.4545307], [-70.6780274, -33.454536], [-70.6780827, -33.454539], [-70.67801, -33.4534786], [-70.677917, -33.4534576]]]}}, {"type": "Feature", "properties": {"n": 8, "nmanzanas": 3, "centro": [-70.671584, -33.452568], "color": "#219b4f", "letras": "ABC"}, "geometry": {"type": "Polygon", "coordinates": [[[-70.6725586, -33.4533507], [-70.6725962, -33.453359], [-70.673296, -33.4535139], [-70.6733645, -33.4535291], [-70.6733805, -33.453462], [-70.6736174, -33.4524717], [-70.6735632, -33.452459], [-70.673468, -33.4524369], [-70.6725932, -33.4522336], [-70.6725176, -33.452216], [-70.672451, -33.452201], [-70.6708619, -33.4518332], [-70.6698088, -33.4515895], [-70.6697953, -33.4516459], [-70.6696493, -33.4522549], [-70.6695798, -33.4525449], [-70.6695687, -33.4525911], [-70.6695508, -33.4526659], [-70.6696654, -33.4526919], [-70.6697103, -33.4527021], [-70.6704372, -33.4528669], [-70.6707792, -33.4529428], [-70.6724097, -33.4533171], [-70.6724878, -33.453335], [-70.6725586, -33.4533507]]]}}, {"type": "Feature", "properties": {"n": 9, "nmanzanas": 4, "centro": [-70.66702, -33.451476], "color": "#7d183f", "letras": "ABCD"}, "geometry": {"type": "Polygon", "coordinates": [[[-70.6677277, -33.4522519], [-70.6694241, -33.4526371], [-70.6695508, -33.4526659], [-70.6695687, -33.4525911], [-70.6695798, -33.4525449], [-70.6696493, -33.4522549], [-70.6697953, -33.4516459], [-70.6698088, -33.4515895], [-70.6696687, -33.4515569], [-70.6679054, -33.451147], [-70.6678206, -33.4511265], [-70.6677396, -33.4511077], [-70.6676378, -33.4510785], [-70.6670334, -33.450928], [-70.6664777, -33.4507896], [-70.666403, -33.450771], [-70.6663351, -33.4507506], [-70.6662917, -33.4507375], [-70.665702, -33.45056], [-70.6655948, -33.4505277], [-70.6655335, -33.4505102], [-70.6653824, -33.4504669], [-70.6650451, -33.4503705], [-70.6647277, -33.4502797], [-70.6647178, -33.4503809], [-70.6646511, -33.4510618], [-70.664638, -33.4512335], [-70.6646487, -33.4513334], [-70.6646739, -33.4513971], [-70.6646959, -33.451443], [-70.6647107, -33.4514648], [-70.6647262, -33.4514877], [-70.6647605, -33.4515313], [-70.6647921, -33.4515764], [-70.6648128, -33.4516083], [-70.6649511, -33.4516388], [-70.6649767, -33.4516444], [-70.6656976, -33.4518034], [-70.666362, -33.4519499], [-70.6664251, -33.4519638], [-70.6665156, -33.4519838], [-70.6674312, -33.4521857], [-70.6676022, -33.4522234], [-70.6676807, -33.4522412], [-70.6677277, -33.4522519]]]}}, {"type": "Feature", "properties": {"n": 10, "nmanzanas": 4, "centro": [-70.66219, -33.45042], "color": "#82b1e2", "letras": "ABCD"}, "geometry": {"type": "Polygon", "coordinates": [[[-70.6645909, -33.4515613], [-70.6646176, -33.4513637], [-70.664638, -33.4512335], [-70.6646511, -33.4510618], [-70.6647178, -33.4503809], [-70.6647277, -33.4502797], [-70.6645831, -33.4502501], [-70.6635315, -33.4500349], [-70.6634207, -33.450012], [-70.6633725, -33.4500021], [-70.6632029, -33.4499702], [-70.6620701, -33.4497465], [-70.6619827, -33.4497291], [-70.6610927, -33.4495515], [-70.6610099, -33.4495354], [-70.6608859, -33.449511], [-70.6601691, -33.4493698], [-70.6599914, -33.4493344], [-70.659977, -33.449381], [-70.6598813, -33.4496993], [-70.6597513, -33.4501301], [-70.6596544, -33.4504592], [-70.6597639, -33.4504835], [-70.6598174, -33.4504953], [-70.6606766, -33.4506857], [-70.6607795, -33.4507085], [-70.6608328, -33.4507204], [-70.6608845, -33.4507318], [-70.6617756, -33.4509293], [-70.6618884, -33.4509543], [-70.6619403, -33.450966], [-70.6626644, -33.4511286], [-70.6632564, -33.4512647], [-70.6633532, -33.4512833], [-70.6645909, -33.4515613]]]}}, {"type": "Feature", "properties": {"n": 11, "nmanzanas": 5, "centro": [-70.675567, -33.454533], "color": "#81b0e2", "letras": "ABCDE"}, "geometry": {"type": "Polygon", "coordinates": [[[-70.6781207, -33.4550608], [-70.6780827, -33.454539], [-70.6780274, -33.454536], [-70.6779721, -33.4545307], [-70.6774469, -33.4544186], [-70.6771489, -33.4543575], [-70.6761171, -33.4541375], [-70.6759681, -33.4541057], [-70.6759199, -33.4540958], [-70.6758518, -33.4540807], [-70.6748291, -33.4538535], [-70.6747929, -33.4538455], [-70.6747163, -33.4538285], [-70.6746284, -33.453809], [-70.6734159, -33.4535396], [-70.6733645, -33.4535291], [-70.6731218, -33.454591], [-70.6743863, -33.4548588], [-70.674406, -33.4548627], [-70.6744728, -33.4548781], [-70.6745379, -33.4548935], [-70.6755786, -33.4551044], [-70.6755939, -33.4551078], [-70.6756878, -33.4551271], [-70.6767595, -33.4553529], [-70.6768635, -33.4553758], [-70.6769129, -33.4553842], [-70.6774038, -33.4554756], [-70.6774762, -33.4554854], [-70.6775466, -33.4554932], [-70.678016, -33.4555285], [-70.6780467, -33.4555301], [-70.6781553, -33.4555379], [-70.6781494, -33.4554563], [-70.6781207, -33.4550608]]]}}, {"type": "Feature", "properties": {"n": 12, "nmanzanas": 2, "centro": [-70.671341, -33.453614], "color": "#952c90", "letras": "AB"}, "geometry": {"type": "Polygon", "coordinates": [[[-70.673296, -33.4535139], [-70.6725962, -33.453359], [-70.6725586, -33.4533507], [-70.6724878, -33.453335], [-70.6724097, -33.4533171], [-70.6707792, -33.4529428], [-70.6704372, -33.4528669], [-70.6697103, -33.4527021], [-70.6696654, -33.4526919], [-70.6695508, -33.4526659], [-70.6693172, -33.4536991], [-70.6692983, -33.4537803], [-70.6694429, -33.4538108], [-70.6708536, -33.4541084], [-70.6717691, -33.4543027], [-70.6718076, -33.4543114], [-70.6723235, -33.4544264], [-70.672369, -33.4544365], [-70.6724565, -33.454456], [-70.6725238, -33.4544696], [-70.6730168, -33.4545696], [-70.6731218, -33.454591], [-70.6733645, -33.4535291], [-70.673296, -33.4535139]]]}}, {"type": "Feature", "properties": {"n": 13, "nmanzanas": 4, "centro": [-70.667008, -33.452709], "color": "#656668", "letras": "ABCD"}, "geometry": {"type": "Polygon", "coordinates": [[[-70.6677277, -33.4522519], [-70.6676807, -33.4522412], [-70.6676022, -33.4522234], [-70.6674312, -33.4521857], [-70.6665156, -33.4519838], [-70.6664251, -33.4519638], [-70.666362, -33.4519499], [-70.6656976, -33.4518034], [-70.6649767, -33.4516444], [-70.6649511, -33.4516388], [-70.6648128, -33.4516083], [-70.6646808, -33.4515803], [-70.6645909, -33.4515613], [-70.664582, -33.4516488], [-70.6644701, -33.4527517], [-70.6649218, -33.4528412], [-70.6650538, -33.4528674], [-70.6660123, -33.4530794], [-70.6661836, -33.4531173], [-70.666292, -33.4531412], [-70.6671973, -33.4533415], [-70.6672951, -33.4533631], [-70.6673719, -33.4533801], [-70.6674624, -33.453399], [-70.6686498, -33.4536462], [-70.6691433, -33.4537483], [-70.6692272, -33.4537656], [-70.6692983, -33.4537803], [-70.6693172, -33.4536991], [-70.6695508, -33.4526659], [-70.6694241, -33.4526371], [-70.6677277, -33.4522519]]]}}, {"type": "Feature", "properties": {"n": 14, "nmanzanas": 4, "centro": [-70.66196, -33.45161], "color": "#962a91", "letras": "ABCD"}, "geometry": {"type": "Polygon", "coordinates": [[[-70.6643958, -33.4527366], [-70.6644701, -33.4527517], [-70.664582, -33.4516488], [-70.6645909, -33.4515613], [-70.6633532, -33.4512833], [-70.6632564, -33.4512647], [-70.6626644, -33.4511286], [-70.6619403, -33.450966], [-70.6618884, -33.4509543], [-70.6617756, -33.4509293], [-70.6608845, -33.4507318], [-70.6608328, -33.4507204], [-70.6607795, -33.4507085], [-70.6606766, -33.4506857], [-70.6598174, -33.4504953], [-70.6597639, -33.4504835], [-70.6596544, -33.4504592], [-70.6595504, -33.4508115], [-70.6594911, -33.4510128], [-70.6593819, -33.4513832], [-70.6593212, -33.451585], [-70.6593475, -33.4516349], [-70.6593639, -33.4516598], [-70.6593841, -33.4516844], [-70.6594141, -33.4517062], [-70.6594485, -33.451723], [-70.659486, -33.4517342], [-70.659955, -33.4518344], [-70.6603939, -33.4519236], [-70.6605339, -33.451952], [-70.6606413, -33.4519738], [-70.6616096, -33.4521706], [-70.6617012, -33.4521892], [-70.6617834, -33.4522059], [-70.6630005, -33.4524531], [-70.6630977, -33.4524752], [-70.6642843, -33.4527139], [-70.6643958, -33.4527366]]]}}, {"type": "Feature", "properties": {"n": 15, "nmanzanas": 5, "centro": [-70.67552, -33.455599], "color": "#feebbe", "letras": "ABCDE"}, "geometry": {"type": "Polygon", "coordinates": [[[-70.6781398, -33.4567084], [-70.6782402, -33.4567283], [-70.6781553, -33.4555379], [-70.6780467, -33.4555301], [-70.678016, -33.4555285], [-70.6775466, -33.4554932], [-70.6774762, -33.4554854], [-70.6774038, -33.4554756], [-70.6769129, -33.4553842], [-70.6768635, -33.4553758], [-70.6767595, -33.4553529], [-70.6756878, -33.4551271], [-70.6755939, -33.4551078], [-70.6755786, -33.4551044], [-70.6745379, -33.4548935], [-70.6744728, -33.4548781], [-70.674406, -33.4548627], [-70.6743863, -33.4548588], [-70.6731218, -33.454591], [-70.6729377, -33.4553551], [-70.672913, -33.4554576], [-70.6728654, -33.4556604], [-70.6729171, -33.4556707], [-70.6741342, -33.4559117], [-70.6742205, -33.4559297], [-70.6742965, -33.4559453], [-70.6743394, -33.4559538], [-70.6754383, -33.4561716], [-70.6754782, -33.4561796], [-70.6756296, -33.4562096], [-70.6766621, -33.4564148], [-70.6767026, -33.4564228], [-70.6767527, -33.456432], [-70.6774995, -33.4565812], [-70.6780884, -33.4566983], [-70.6781398, -33.4567084]]]}}, {"type": "Feature", "properties": {"n": 16, "nmanzanas": 2, "centro": [-70.671097, -33.454671], "color": "#861d3f", "letras": "AB"}, "geometry": {"type": "Polygon", "coordinates": [[[-70.6724146, -33.4555699], [-70.6724301, -33.4555739], [-70.6728654, -33.4556604], [-70.672913, -33.4554576], [-70.6729377, -33.4553551], [-70.6731218, -33.454591], [-70.6730168, -33.4545696], [-70.6725238, -33.4544696], [-70.6724565, -33.454456], [-70.672369, -33.4544365], [-70.6723235, -33.4544264], [-70.6718076, -33.4543114], [-70.6717691, -33.4543027], [-70.6708536, -33.4541084], [-70.6694429, -33.4538108], [-70.6692983, -33.4537803], [-70.6691296, -33.4545062], [-70.6690735, -33.4547519], [-70.6690596, -33.4548127], [-70.6690411, -33.4548938], [-70.6691741, -33.4549205], [-70.6692477, -33.4549353], [-70.6723723, -33.4555624], [-70.6724146, -33.4555699]]]}}, {"type": "Feature", "properties": {"n": 17, "nmanzanas": 5, "centro": [-70.666811, -33.453862], "color": "#83b2e1", "letras": "ABCDE"}, "geometry": {"type": "Polygon", "coordinates": [[[-70.6690411, -33.4548938], [-70.6690596, -33.4548127], [-70.6690735, -33.4547519], [-70.6691296, -33.4545062], [-70.6692983, -33.4537803], [-70.6692272, -33.4537656], [-70.6691433, -33.4537483], [-70.6686498, -33.4536462], [-70.6674624, -33.453399], [-70.6673719, -33.4533801], [-70.6672951, -33.4533631], [-70.6671973, -33.4533415], [-70.666292, -33.4531412], [-70.6661836, -33.4531173], [-70.6660123, -33.4530794], [-70.6650538, -33.4528674], [-70.6649218, -33.4528412], [-70.6644701, -33.4527517], [-70.6643339, -33.4539436], [-70.6644321, -33.4539634], [-70.6644671, -33.4539705], [-70.6649936, -33.4540764], [-70.6650654, -33.4540909], [-70.6651258, -33.454103], [-70.6651625, -33.4541104], [-70.6662417, -33.454327], [-70.6662929, -33.4543372], [-70.666956, -33.4544703], [-70.6670581, -33.4544936], [-70.6671681, -33.4544297], [-70.6671493, -33.4545227], [-70.6671871, -33.4545303], [-70.6672611, -33.4545452], [-70.6679211, -33.454678], [-70.6683924, -33.4547716], [-70.6689037, -33.4548679], [-70.6690411, -33.4548938]]]}}, {"type": "Feature", "properties": {"n": 18, "nmanzanas": 5, "centro": [-70.661938, -33.452764], "color": "#e7e5af", "letras": "ABCDE"}, "geometry": {"type": "Polygon", "coordinates": [[[-70.6637097, -33.4538183], [-70.6643339, -33.4539436], [-70.6644701, -33.4527517], [-70.6643958, -33.4527366], [-70.6642843, -33.4527139], [-70.6630977, -33.4524752], [-70.6630005, -33.4524531], [-70.6617834, -33.4522059], [-70.6617012, -33.4521892], [-70.6616096, -33.4521706], [-70.6606413, -33.4519738], [-70.6605339, -33.451952], [-70.6603939, -33.4519236], [-70.659955, -33.4518344], [-70.659486, -33.4517342], [-70.6594485, -33.451723], [-70.6594141, -33.4517062], [-70.6593841, -33.4516844], [-70.6593639, -33.4516598], [-70.6593475, -33.4516349], [-70.6593212, -33.451585], [-70.6591788, -33.4520586], [-70.6591678, -33.4520951], [-70.6590769, -33.4523973], [-70.6590509, -33.4524827], [-70.6590312, -33.4525493], [-70.6590013, -33.4526548], [-70.6591257, -33.4526731], [-70.6591715, -33.4526798], [-70.6592445, -33.4526949], [-70.6593149, -33.452717], [-70.6593757, -33.452743], [-70.659425, -33.4527771], [-70.6594565, -33.452805], [-70.6595564, -33.4529108], [-70.6595993, -33.4529572], [-70.6596342, -33.4529846], [-70.6596905, -33.4530104], [-70.6597482, -33.4530277], [-70.6598219, -33.4530456], [-70.6599218, -33.4530652], [-70.6603027, -33.4531342], [-70.6604104, -33.4531558], [-70.660465, -33.4531668], [-70.6609926, -33.4532727], [-70.6612073, -33.4533158], [-70.6612682, -33.453328], [-70.6615231, -33.4533792], [-70.6616503, -33.4534049], [-70.6629415, -33.453666], [-70.6630278, -33.4536813], [-70.6637097, -33.4538183]]]}}, {"type": "Feature", "properties": {"n": 19, "nmanzanas": 3, "centro": [-70.674644, -33.456544], "color": "#646567", "letras": "ABC"}, "geometry": {"type": "Polygon", "coordinates": [[[-70.6756296, -33.4562096], [-70.6754782, -33.4561796], [-70.6754383, -33.4561716], [-70.6743394, -33.4559538], [-70.6742965, -33.4559453], [-70.6742205, -33.4559297], [-70.6741342, -33.4559117], [-70.6729171, -33.4556707], [-70.6728654, -33.4556604], [-70.6726241, -33.4566737], [-70.6726028, -33.4567608], [-70.6735317, -33.456945], [-70.6738104, -33.4570003], [-70.6739029, -33.4570187], [-70.6739615, -33.4570303], [-70.6751025, -33.4572589], [-70.6751333, -33.4572672], [-70.6751765, -33.457276], [-70.6763558, -33.4575144], [-70.6764123, -33.4575259], [-70.6765115, -33.4570848], [-70.6766621, -33.4564148], [-70.6756296, -33.4562096]]]}}, {"type": "Feature", "properties": {"n": 20, "nmanzanas": 2, "centro": [-70.670833, -33.455791], "color": "#c3c312", "letras": "AB"}, "geometry": {"type": "Polygon", "coordinates": [[[-70.6724301, -33.4555739], [-70.6724146, -33.4555699], [-70.6723723, -33.4555624], [-70.6692477, -33.4549353], [-70.6691741, -33.4549205], [-70.6690411, -33.4548938], [-70.6690241, -33.4549668], [-70.6688012, -33.4559213], [-70.6687828, -33.4560029], [-70.6689067, -33.4560285], [-70.6721801, -33.4566743], [-70.672224, -33.4566856], [-70.6722906, -33.4566988], [-70.6725471, -33.4567497], [-70.6726028, -33.4567608], [-70.6726241, -33.4566737], [-70.6728654, -33.4556604], [-70.6724301, -33.4555739]]]}}, {"type": "Feature", "properties": {"n": 21, "nmanzanas": 5, "centro": [-70.666621, -33.455031], "color": "#656668", "letras": "ABCDG"}, "geometry": {"type": "Polygon", "coordinates": [[[-70.6683924, -33.4547716], [-70.6679211, -33.454678], [-70.6672611, -33.4545452], [-70.6671871, -33.4545303], [-70.6671493, -33.4545227], [-70.6670581, -33.4544936], [-70.666956, -33.4544703], [-70.6662929, -33.4543372], [-70.6662417, -33.454327], [-70.6651625, -33.4541104], [-70.6651258, -33.454103], [-70.6650654, -33.4540909], [-70.6649936, -33.4540764], [-70.6644671, -33.4539705], [-70.6644321, -33.4539634], [-70.6643339, -33.4539436], [-70.6643271, -33.454013], [-70.6643236, -33.4540489], [-70.6642947, -33.4543456], [-70.6642769, -33.4545303], [-70.6642279, -33.4550956], [-70.6643582, -33.4551217], [-70.6649168, -33.4552335], [-70.664941, -33.4552384], [-70.665048, -33.4552598], [-70.6651646, -33.4552832], [-70.6658894, -33.4554283], [-70.6660771, -33.4554659], [-70.6661718, -33.4554849], [-70.6667236, -33.4555981], [-70.6667921, -33.4556096], [-70.6668347, -33.4556174], [-70.6669267, -33.4556358], [-70.6669905, -33.4556475], [-70.6682512, -33.4558974], [-70.6685713, -33.4559609], [-70.6686329, -33.4559731], [-70.6687828, -33.4560029], [-70.6688012, -33.4559213], [-70.6690241, -33.4549668], [-70.6690411, -33.4548938], [-70.6689037, -33.4548679], [-70.6683924, -33.4547716]]]}}, {"type": "Feature", "properties": {"n": 22, "nmanzanas": 6, "centro": [-70.661347, -33.453881], "color": "#fb9e30", "letras": "ABCDEF"}, "geometry": {"type": "Polygon", "coordinates": [[[-70.66419, -33.455088], [-70.6642279, -33.4550956], [-70.6642769, -33.4545303], [-70.6642947, -33.4543456], [-70.6643236, -33.4540489], [-70.6643271, -33.454013], [-70.6643339, -33.4539436], [-70.6637097, -33.4538183], [-70.6630278, -33.4536813], [-70.6629415, -33.453666], [-70.6616503, -33.4534049], [-70.6615231, -33.4533792], [-70.6612682, -33.453328], [-70.6612073, -33.4533158], [-70.6609926, -33.4532727], [-70.660465, -33.4531668], [-70.6604104, -33.4531558], [-70.6603027, -33.4531342], [-70.6599218, -33.4530652], [-70.6598219, -33.4530456], [-70.6597482, -33.4530277], [-70.6596905, -33.4530104], [-70.6596342, -33.4529846], [-70.6595993, -33.4529572], [-70.6595564, -33.4529108], [-70.6594565, -33.452805], [-70.659425, -33.4527771], [-70.6593757, -33.452743], [-70.6593149, -33.452717], [-70.6592445, -33.4526949], [-70.6591715, -33.4526798], [-70.6591257, -33.4526731], [-70.6590013, -33.4526548], [-70.6589855, -33.4527165], [-70.6588618, -33.4531599], [-70.6587522, -33.4535848], [-70.6586444, -33.4539872], [-70.658746, -33.4540068], [-70.658787, -33.4540148], [-70.6593024, -33.4541144], [-70.65998, -33.4542454], [-70.6600233, -33.4542538], [-70.6600899, -33.4542657], [-70.660215, -33.4542919], [-70.6610917, -33.4544675], [-70.661188, -33.4544867], [-70.6612205, -33.4544933], [-70.6613392, -33.454517], [-70.6614234, -33.4545339], [-70.6626194, -33.4547734], [-70.6627114, -33.4547919], [-70.6627916, -33.4548096], [-70.6641227, -33.4550745], [-70.66419, -33.455088]]]}}, {"type": "Feature", "properties": {"n": 23, "nmanzanas": 4, "centro": [-70.674108, -33.457395], "color": "#7c093c", "letras": "ABCD"}, "geometry": {"type": "Polygon", "coordinates": [[[-70.6763558, -33.4575144], [-70.6751765, -33.457276], [-70.6751333, -33.4572672], [-70.6751025, -33.4572589], [-70.6739615, -33.4570303], [-70.6739029, -33.4570187], [-70.6738104, -33.4570003], [-70.6735317, -33.456945], [-70.6726028, -33.4567608], [-70.6724051, -33.4575781], [-70.6723576, -33.4577675], [-70.6723305, -33.4578754], [-70.6722559, -33.458181], [-70.6722487, -33.4582105], [-70.672229, -33.4583212], [-70.6723014, -33.4583257], [-70.6734931, -33.4583997], [-70.6735434, -33.4584028], [-70.6736381, -33.4584087], [-70.6737242, -33.4584138], [-70.6747123, -33.4584751], [-70.6747991, -33.4584805], [-70.6748897, -33.4584861], [-70.6749728, -33.4584912], [-70.6752077, -33.4585058], [-70.6759454, -33.4585562], [-70.67624892674014, -33.45857486130757], [-70.67626717139517, -33.458498680337335], [-70.6762706589644, -33.458484117913], [-70.6761827, -33.4584846], [-70.6763834, -33.4584835], [-70.6764817, -33.4584731], [-70.6767274, -33.45844], [-70.6781234, -33.4581587], [-70.678178, -33.4581477], [-70.6782404, -33.4581413], [-70.6782755, -33.4581431], [-70.6783113, -33.4581525], [-70.6783396, -33.4581666], [-70.6783325, -33.4580465], [-70.6783297, -33.4580083], [-70.6783114, -33.4577585], [-70.6782402, -33.4567283], [-70.6781398, -33.4567084], [-70.6780884, -33.4566983], [-70.6774995, -33.4565812], [-70.6767527, -33.456432], [-70.6767026, -33.4564228], [-70.6766621, -33.4564148], [-70.6765115, -33.4570848], [-70.6764123, -33.4575259], [-70.6763558, -33.4575144]]]}}, {"type": "Feature", "properties": {"n": 24, "nmanzanas": 2, "centro": [-70.670471, -33.457296], "color": "#1f9d4c", "letras": "AB"}, "geometry": {"type": "Polygon", "coordinates": [[[-70.672229, -33.4583212], [-70.6722487, -33.4582105], [-70.6722559, -33.458181], [-70.6723305, -33.4578754], [-70.6723576, -33.4577675], [-70.6724051, -33.4575781], [-70.6726028, -33.4567608], [-70.6725471, -33.4567497], [-70.6722906, -33.4566988], [-70.672224, -33.4566856], [-70.6721801, -33.4566743], [-70.6689067, -33.4560285], [-70.6687828, -33.4560029], [-70.6687537, -33.4561098], [-70.6685283, -33.4570516], [-70.6684079, -33.457541], [-70.6683833, -33.4576367], [-70.6685171, -33.4576603], [-70.6702864, -33.4579856], [-70.6706115, -33.4580434], [-70.6720367, -33.4582943], [-70.6720561, -33.4582973], [-70.6721399, -33.4583116], [-70.672229, -33.4583212]]]}}, {"type": "Feature", "properties": {"n": 25, "nmanzanas": 8, "centro": [-70.666358, -33.456593], "color": "#feebbc", "letras": "ABCDEFGH"}, "geometry": {"type": "Polygon", "coordinates": [[[-70.6665881, -33.4573283], [-70.6682252, -33.4576095], [-70.6683833, -33.4576367], [-70.6684079, -33.457541], [-70.6685283, -33.4570516], [-70.6687537, -33.4561098], [-70.6687828, -33.4560029], [-70.6686329, -33.4559731], [-70.6685713, -33.4559609], [-70.6682512, -33.4558974], [-70.6669905, -33.4556475], [-70.6669267, -33.4556358], [-70.6668347, -33.4556174], [-70.6667921, -33.4556096], [-70.6667236, -33.4555981], [-70.6661718, -33.4554849], [-70.6660771, -33.4554659], [-70.6658894, -33.4554283], [-70.6651646, -33.4552832], [-70.665048, -33.4552598], [-70.664941, -33.4552384], [-70.6649168, -33.4552335], [-70.6643582, -33.4551217], [-70.6642279, -33.4550956], [-70.6642107, -33.4552174], [-70.6641921, -33.4554102], [-70.6641694, -33.4556448], [-70.6641174, -33.4561844], [-70.6641126, -33.4562464], [-70.6641035, -33.4563285], [-70.6640524, -33.4568581], [-70.6640491, -33.4568919], [-70.6640405, -33.4569812], [-70.6641183, -33.4569864], [-70.6645556, -33.4570202], [-70.6648549, -33.4570445], [-70.6648962, -33.4570479], [-70.6650133, -33.4570602], [-70.6650659, -33.4570694], [-70.6652839, -33.4571047], [-70.6656256, -33.4571624], [-70.666063, -33.4572378], [-70.6664979, -33.4573114], [-70.6665881, -33.4573283]]]}}, {"type": "Feature", "properties": {"n": 26, "nmanzanas": 5, "centro": [-70.661283, -33.455118], "color": "#1d9b4c", "letras": "ABCFG"}, "geometry": {"type": "Polygon", "coordinates": [[[-70.6627666, -33.4559821], [-70.6640499, -33.4562341], [-70.6641126, -33.4562464], [-70.6641174, -33.4561844], [-70.6641694, -33.4556448], [-70.6641921, -33.4554102], [-70.6642107, -33.4552174], [-70.6642279, -33.4550956], [-70.66419, -33.455088], [-70.6641227, -33.4550745], [-70.6627916, -33.4548096], [-70.6627114, -33.4547919], [-70.6626194, -33.4547734], [-70.6614234, -33.4545339], [-70.6613392, -33.454517], [-70.6612205, -33.4544933], [-70.661188, -33.4544867], [-70.6610917, -33.4544675], [-70.660215, -33.4542919], [-70.6600899, -33.4542657], [-70.6600233, -33.4542538], [-70.65998, -33.4542454], [-70.6593024, -33.4541144], [-70.658787, -33.4540148], [-70.658746, -33.4540068], [-70.6586444, -33.4539872], [-70.6585298, -33.4543788], [-70.6584968, -33.4544725], [-70.6584572, -33.4545643], [-70.6584111, -33.4546541], [-70.6583511, -33.4547527], [-70.658283, -33.4548476], [-70.6582072, -33.4549383], [-70.6582104, -33.4549737], [-70.6582099, -33.4550093], [-70.6582046, -33.4550503], [-70.6581948, -33.4550892], [-70.6583247, -33.4551144], [-70.658359, -33.4551211], [-70.6597584, -33.455393], [-70.6598717, -33.455415], [-70.6599496, -33.4554301], [-70.6599837, -33.4554368], [-70.6605343, -33.4555438], [-70.6611542, -33.4556642], [-70.6611825, -33.4556712], [-70.6612095, -33.4556766], [-70.6612358, -33.4556818], [-70.66128, -33.4556904], [-70.6621726, -33.4558655], [-70.6625587, -33.4559413], [-70.6626409, -33.4559587], [-70.6627449, -33.4559778], [-70.6627666, -33.4559821]]]}}, {"type": "Feature", "properties": {"n": 27, "nmanzanas": 5, "centro": [-70.660643, -33.456108], "color": "#81b0e1", "letras": "ABCDE"}, "geometry": {"type": "Polygon", "coordinates": [[[-70.6639613, -33.456975], [-70.6640405, -33.4569812], [-70.6640491, -33.4568919], [-70.6640524, -33.4568581], [-70.6641035, -33.4563285], [-70.6641126, -33.4562464], [-70.6640499, -33.4562341], [-70.6627666, -33.4559821], [-70.6627449, -33.4559778], [-70.6626409, -33.4559587], [-70.6625587, -33.4559413], [-70.6621726, -33.4558655], [-70.66128, -33.4556904], [-70.6612358, -33.4556818], [-70.6612095, -33.4556766], [-70.6611825, -33.4556712], [-70.6611542, -33.4556642], [-70.6605343, -33.4555438], [-70.6599837, -33.4554368], [-70.6599496, -33.4554301], [-70.6598717, -33.455415], [-70.6597584, -33.455393], [-70.658359, -33.4551211], [-70.6583247, -33.4551144], [-70.6581948, -33.4550892], [-70.6581665, -33.4551803], [-70.6580185, -33.4556575], [-70.6579963, -33.455729], [-70.6579618, -33.4558392], [-70.6578156, -33.4563028], [-70.6577784, -33.4564251], [-70.6583226, -33.4564733], [-70.6585943, -33.4564966], [-70.6586587, -33.4565022], [-70.6594612, -33.4565523], [-70.6595121, -33.4565555], [-70.6596543, -33.4565632], [-70.660278, -33.4566375], [-70.6604126, -33.4566536], [-70.660431, -33.4566556], [-70.6605522, -33.4566677], [-70.6608329, -33.4566965], [-70.6608656, -33.4566999], [-70.6608881, -33.4567011], [-70.6609845, -33.4567107], [-70.662051, -33.4568079], [-70.6625238, -33.4568519], [-70.6639342, -33.4569725], [-70.6639613, -33.456975]]]}}, {"type": "Feature", "properties": {"n": 28, "nmanzanas": 6, "centro": [-70.677141, -33.460077], "color": "#feebbb", "letras": "ABCDEF"}, "geometry": {"type": "Polygon", "coordinates": [[[-70.6758428, -33.4599256], [-70.6756352, -33.4608139], [-70.6762644, -33.4609389], [-70.6763434, -33.4609546], [-70.6768536, -33.461056], [-70.6769564, -33.4610765], [-70.6770292, -33.461091], [-70.6773638, -33.4611607], [-70.6776463, -33.4612195], [-70.6783906, -33.4613618], [-70.6784599, -33.4613751], [-70.6784812, -33.4613795], [-70.6785876, -33.4614007], [-70.6785805, -33.4613184], [-70.6784858, -33.4602285], [-70.6783763, -33.4588606], [-70.6783443, -33.4588891], [-70.678301, -33.4589115], [-70.6782652, -33.4589213], [-70.6782197, -33.4589249], [-70.6776224, -33.4588734], [-70.6775264, -33.4588652], [-70.6768358, -33.4588057], [-70.6764404, -33.458773], [-70.6761163, -33.4587545], [-70.6761096, -33.4587872], [-70.6761049, -33.4588059], [-70.6759935, -33.4592815], [-70.6759353, -33.4595299], [-70.6758937, -33.4597078], [-70.6758428, -33.4599256]]]}}, {"type": "Feature", "properties": {"n": 29, "nmanzanas": 8, "centro": [-70.676983, -33.462144], "color": "#8b3237", "letras": "ABCDEFGH"}, "geometry": {"type": "Polygon", "coordinates": [[[-70.6758678, -33.4631479], [-70.6762796, -33.4632306], [-70.6763447, -33.4632437], [-70.6764352, -33.4632539], [-70.6773297, -33.4633549], [-70.6775762, -33.4633756], [-70.6777538, -33.463389], [-70.6779751, -33.4633979], [-70.6780549, -33.4634007], [-70.678193, -33.4634013], [-70.6786905, -33.4634005], [-70.6787532, -33.463397], [-70.6786678, -33.4624783], [-70.6785876, -33.4614007], [-70.6784812, -33.4613795], [-70.6784599, -33.4613751], [-70.6783906, -33.4613618], [-70.6776463, -33.4612195], [-70.6773638, -33.4611607], [-70.6770292, -33.461091], [-70.6769564, -33.4610765], [-70.6768536, -33.461056], [-70.6763434, -33.4609546], [-70.6762644, -33.4609389], [-70.6756352, -33.4608139], [-70.6753779, -33.4619109], [-70.6753485, -33.4620376], [-70.6752995, -33.4622501], [-70.6752071, -33.4626508], [-70.6751276, -33.4629993], [-70.6752283, -33.4630195], [-70.6753494, -33.4630439], [-70.6758678, -33.4631479]]]}}, {"type": "Feature", "properties": {"n": 30, "nmanzanas": 6, "centro": [-70.675022, -33.460692], "color": "#249d51", "letras": "ABCDEF"}, "geometry": {"type": "Polygon", "coordinates": [[[-70.6739084, -33.4627073], [-70.6738921, -33.4627766], [-70.6739513, -33.4627874], [-70.6749322, -33.4629641], [-70.675071, -33.4629891], [-70.6751276, -33.4629993], [-70.6752071, -33.4626508], [-70.6752995, -33.4622501], [-70.6753485, -33.4620376], [-70.6753779, -33.4619109], [-70.6756352, -33.4608139], [-70.6758428, -33.4599256], [-70.6758937, -33.4597078], [-70.6759353, -33.4595299], [-70.6759935, -33.4592815], [-70.6761049, -33.4588059], [-70.6761096, -33.4587872], [-70.6761163, -33.4587545], [-70.67617028757238, -33.45875758167259], [-70.67618653121694, -33.458678302989256], [-70.6761304, -33.4586753], [-70.6757341, -33.4586546], [-70.6751629, -33.4586346], [-70.6749937, -33.4586253], [-70.6749476, -33.4586228], [-70.6748546, -33.4586177], [-70.6748329, -33.4587078], [-70.6746635, -33.459475], [-70.6746136, -33.4596897], [-70.6744527, -33.4603819], [-70.674409, -33.4605703], [-70.6741905, -33.461509], [-70.6741641, -33.4616227], [-70.6741506, -33.4616807], [-70.6739457, -33.4625493], [-70.6739084, -33.4627073]]]}}, {"type": "Feature", "properties": {"n": 31, "nmanzanas": 5, "centro": [-70.673665, -33.46101], "color": "#800e3e", "letras": "ABCDE"}, "geometry": {"type": "Polygon", "coordinates": [[[-70.6738921, -33.4627766], [-70.6739084, -33.4627073], [-70.6739457, -33.4625493], [-70.6741506, -33.4616807], [-70.6741641, -33.4616227], [-70.6741905, -33.461509], [-70.674409, -33.4605703], [-70.6744527, -33.4603819], [-70.6746136, -33.4596897], [-70.6746635, -33.459475], [-70.6748329, -33.4587078], [-70.6748546, -33.4586177], [-70.6747772, -33.4586134], [-70.6737432, -33.4585566], [-70.6736974, -33.4585547], [-70.6736035, -33.458549], [-70.6735817, -33.4586417], [-70.6735732, -33.4586776], [-70.6734401, -33.4592405], [-70.673399, -33.4594146], [-70.6733053, -33.4598116], [-70.6731824, -33.4603321], [-70.6729187, -33.4614502], [-70.6726724, -33.4624827], [-70.6726596, -33.4625491], [-70.672726, -33.4625611], [-70.672778, -33.4625707], [-70.6732803, -33.4626638], [-70.6737962, -33.4627589], [-70.6738921, -33.4627766]]]}}, {"type": "Feature", "properties": {"n": 32, "nmanzanas": 4, "centro": [-70.672464, -33.460786], "color": "#81b0e0", "letras": "ABCD"}, "geometry": {"type": "Polygon", "coordinates": [[[-70.6729187, -33.4614502], [-70.6731824, -33.4603321], [-70.6733053, -33.4598116], [-70.673399, -33.4594146], [-70.6734401, -33.4592405], [-70.6735732, -33.4586776], [-70.6735817, -33.4586417], [-70.6736035, -33.458549], [-70.6735155, -33.4585441], [-70.6722823, -33.4584764], [-70.6722552, -33.4584748], [-70.6721939, -33.4584711], [-70.6721255, -33.4584664], [-70.6721174, -33.4585386], [-70.6721136, -33.4586093], [-70.6721087, -33.4587076], [-70.672093, -33.4589672], [-70.671943, -33.4600916], [-70.6717941, -33.4612395], [-70.6717399, -33.461673], [-70.6716537, -33.4623633], [-70.6717112, -33.4623739], [-70.672529, -33.4625233], [-70.6725731, -33.4625314], [-70.6726596, -33.4625491], [-70.6726724, -33.4624827], [-70.6729187, -33.4614502]]]}}, {"type": "Feature", "properties": {"n": 33, "nmanzanas": 3, "centro": [-70.677407, -33.464925], "color": "#feeaba", "letras": "ABC"}, "geometry": {"type": "Polygon", "coordinates": [[[-70.6756168, -33.4663924], [-70.6756114, -33.4664326], [-70.6756087, -33.4664724], [-70.6756067, -33.4665401], [-70.6759832, -33.4665552], [-70.6766289, -33.466581], [-70.6770043, -33.4665932], [-70.6770865, -33.4665976], [-70.6784566, -33.466641], [-70.6788066, -33.4666499], [-70.6788944, -33.4666525], [-70.6789722, -33.4666558], [-70.6789702, -33.4665652], [-70.6789679, -33.4665346], [-70.6789148, -33.4658306], [-70.6788541, -33.464957], [-70.6787975, -33.4640094], [-70.6787938, -33.4639585], [-70.6787919, -33.4639326], [-70.6787532, -33.463397], [-70.6786905, -33.4634005], [-70.678193, -33.4634013], [-70.6780549, -33.4634007], [-70.6779751, -33.4633979], [-70.6777538, -33.463389], [-70.6775762, -33.4633756], [-70.6773297, -33.4633549], [-70.6764352, -33.4632539], [-70.6763447, -33.4632437], [-70.6763051, -33.4634172], [-70.6762224, -33.4637801], [-70.6760986, -33.4643234], [-70.676082, -33.4643961], [-70.6760456, -33.4645558], [-70.6759686, -33.4648935], [-70.6758383, -33.4654346], [-70.6756168, -33.4663924]]]}}, {"type": "Feature", "properties": {"n": 34, "nmanzanas": 3, "centro": [-70.675378, -33.464678], "color": "#c4c543", "letras": "ABC"}, "geometry": {"type": "Polygon", "coordinates": [[[-70.674596, -33.4652937], [-70.6743386, -33.4664124], [-70.6743198, -33.4664941], [-70.6744208, -33.4664969], [-70.6744696, -33.4664987], [-70.6756067, -33.4665401], [-70.6756087, -33.4664724], [-70.6756114, -33.4664326], [-70.6756168, -33.4663924], [-70.6758383, -33.4654346], [-70.6759686, -33.4648935], [-70.6760456, -33.4645558], [-70.676082, -33.4643961], [-70.6760986, -33.4643234], [-70.6762224, -33.4637801], [-70.6763051, -33.4634172], [-70.6763447, -33.4632437], [-70.6762796, -33.4632306], [-70.6758678, -33.4631479], [-70.6753494, -33.4630439], [-70.6752283, -33.4630195], [-70.6751276, -33.4629993], [-70.6748724, -33.4641027], [-70.674855, -33.464177], [-70.6747862, -33.4644737], [-70.6747102, -33.4648011], [-70.6746158, -33.4652103], [-70.674596, -33.4652937]]]}}, {"type": "Feature", "properties": {"n": 35, "nmanzanas": 5, "centro": [-70.674089, -33.464688], "color": "#727274", "letras": "ABCDE"}, "geometry": {"type": "Polygon", "coordinates": [[[-70.6731725, -33.4658332], [-70.6730828, -33.4662189], [-70.673064, -33.4663001], [-70.6730585, -33.4663233], [-70.6730486, -33.4663861], [-70.6730412, -33.4664584], [-70.6731197, -33.4664606], [-70.6731714, -33.466462], [-70.6735045, -33.4664713], [-70.6741786, -33.4664902], [-70.6742217, -33.4664914], [-70.6743198, -33.4664941], [-70.6743386, -33.4664124], [-70.674596, -33.4652937], [-70.6746158, -33.4652103], [-70.6747102, -33.4648011], [-70.6747862, -33.4644737], [-70.674855, -33.464177], [-70.6748724, -33.4641027], [-70.6751276, -33.4629993], [-70.675071, -33.4629891], [-70.6749322, -33.4629641], [-70.6739513, -33.4627874], [-70.6738921, -33.4627766], [-70.6736807, -33.4636728], [-70.6736322, -33.4638792], [-70.6735451, -33.464248], [-70.6734678, -33.4645752], [-70.6733838, -33.4649322], [-70.6733722, -33.4649821], [-70.6732743, -33.4653995], [-70.6731725, -33.4658332]]]}}, {"type": "Feature", "properties": {"n": 36, "nmanzanas": 4, "centro": [-70.672863, -33.464412], "color": "#cac082", "letras": "ABCD"}, "geometry": {"type": "Polygon", "coordinates": [[[-70.6717434, -33.4664268], [-70.6718222, -33.4664289], [-70.671865, -33.4664301], [-70.6721917, -33.4664392], [-70.6729004, -33.4664552], [-70.6730412, -33.4664584], [-70.6730486, -33.4663861], [-70.6730585, -33.4663233], [-70.673064, -33.4663001], [-70.6730828, -33.4662189], [-70.6731725, -33.4658332], [-70.6732743, -33.4653995], [-70.6733722, -33.4649821], [-70.6733838, -33.4649322], [-70.6734678, -33.4645752], [-70.6735451, -33.464248], [-70.6736322, -33.4638792], [-70.6736807, -33.4636728], [-70.6738921, -33.4627766], [-70.6737962, -33.4627589], [-70.6732803, -33.4626638], [-70.672778, -33.4625707], [-70.672726, -33.4625611], [-70.6726596, -33.4625491], [-70.6726429, -33.4626204], [-70.6726348, -33.4626546], [-70.6723986, -33.4636569], [-70.672138, -33.4647557], [-70.6721259, -33.464816], [-70.6720851, -33.4649779], [-70.6720394, -33.4651712], [-70.6717642, -33.4663444], [-70.6717434, -33.4664268]]]}}, {"type": "Feature", "properties": {"n": 37, "nmanzanas": 3, "centro": [-70.671922, -33.464154], "color": "#289d50", "letras": "ABC"}, "geometry": {"type": "Polygon", "coordinates": [[[-70.6715851, -33.4660531], [-70.6716337, -33.4662485], [-70.6716518, -33.4663034], [-70.6716627, -33.4663322], [-70.6716728, -33.4663506], [-70.671691, -33.4663744], [-70.6717434, -33.4664268], [-70.6717642, -33.4663444], [-70.6720394, -33.4651712], [-70.6720851, -33.4649779], [-70.6721259, -33.464816], [-70.672138, -33.4647557], [-70.6723986, -33.4636569], [-70.6726348, -33.4626546], [-70.6726429, -33.4626204], [-70.6726596, -33.4625491], [-70.6725731, -33.4625314], [-70.672529, -33.4625233], [-70.6717112, -33.4623739], [-70.6716537, -33.4623633], [-70.6715747, -33.4631708], [-70.6715613, -33.4633375], [-70.6715553, -33.4635051], [-70.6715559, -33.4636429], [-70.6715724, -33.4646519], [-70.6715851, -33.4660531]]]}}, {"type": "Feature", "properties": {"n": 38, "nmanzanas": 3, "centro": [-70.678507, -33.46778], "color": "#7e0d3d", "letras": "ABC"}, "geometry": {"type": "Polygon", "coordinates": [[[-70.6781989, -33.468067], [-70.6784492, -33.468391], [-70.6789119, -33.469008], [-70.6789434, -33.4690415], [-70.6789762, -33.4690712], [-70.6790165, -33.4690997], [-70.6790672, -33.4691221], [-70.6790956, -33.4691344], [-70.6791285, -33.4691406], [-70.6791091, -33.4688317], [-70.6790249, -33.4674925], [-70.6789975, -33.4670576], [-70.6789773, -33.4667492], [-70.6789722, -33.4666558], [-70.6788944, -33.4666525], [-70.6788066, -33.4666499], [-70.6784566, -33.466641], [-70.6770865, -33.4665976], [-70.6770043, -33.4665932], [-70.6766289, -33.466581], [-70.6759832, -33.4665552], [-70.6756067, -33.4665401], [-70.6744696, -33.4664987], [-70.6744208, -33.4664969], [-70.6743198, -33.4664941], [-70.6743187, -33.4665783], [-70.6743182, -33.4666133], [-70.6743164, -33.4667465], [-70.6743136, -33.466954], [-70.6743107, -33.4671698], [-70.6743482, -33.4671701], [-70.674942, -33.4671742], [-70.6755478, -33.4671785], [-70.675592, -33.4671788], [-70.675635, -33.4671791], [-70.6768586, -33.4671877], [-70.6773234, -33.467191], [-70.6775068, -33.4671924], [-70.6781989, -33.468067]]]}}, {"type": "Feature", "properties": {"n": 39, "nmanzanas": 4, "centro": [-70.676116, -33.467727], "color": "#209b4d", "letras": "ABCD"}, "geometry": {"type": "Polygon", "coordinates": [[[-70.6768586, -33.4671877], [-70.675635, -33.4671791], [-70.675592, -33.4671788], [-70.6755478, -33.4671785], [-70.674942, -33.4671742], [-70.6743482, -33.4671701], [-70.6743107, -33.4671698], [-70.6743096, -33.4672595], [-70.6743079, -33.4673865], [-70.6742949, -33.4683531], [-70.674347, -33.468354], [-70.6749221, -33.4683638], [-70.6755651, -33.468371], [-70.6768425, -33.4683851], [-70.6783131, -33.4683905], [-70.6784492, -33.468391], [-70.6781989, -33.468067], [-70.6775068, -33.4671924], [-70.6773234, -33.467191], [-70.6768586, -33.4671877]]]}}, {"type": "Feature", "properties": {"n": 40, "nmanzanas": 5, "centro": [-70.673652, -33.467649], "color": "#b391b2", "letras": "ABCDE"}, "geometry": {"type": "Polygon", "coordinates": [[[-70.6738174, -33.4683501], [-70.67424, -33.4683527], [-70.6742949, -33.4683531], [-70.6743079, -33.4673865], [-70.6743096, -33.4672595], [-70.6743107, -33.4671698], [-70.6743136, -33.466954], [-70.6743164, -33.4667465], [-70.6743182, -33.4666133], [-70.6743187, -33.4665783], [-70.6743198, -33.4664941], [-70.6742217, -33.4664914], [-70.6741786, -33.4664902], [-70.6735045, -33.4664713], [-70.6731714, -33.466462], [-70.6731197, -33.4664606], [-70.6730412, -33.4664584], [-70.6730358, -33.4665383], [-70.6730311, -33.4667028], [-70.6730108, -33.4670881], [-70.6730093, -33.4671616], [-70.6729945, -33.4679117], [-70.67299, -33.4681376], [-70.6729874, -33.4682729], [-70.6729859, -33.4683449], [-70.6730365, -33.4683452], [-70.673066, -33.4683454], [-70.6733069, -33.4683469], [-70.6734278, -33.4683477], [-70.6738174, -33.4683501]]]}}, {"type": "Feature", "properties": {"n": 41, "nmanzanas": 6, "centro": [-70.671943, -33.467277], "color": "#f79c33", "letras": "ABCDEF"}, "geometry": {"type": "MultiPolygon", "coordinates": [[[[-70.6707013, -33.4682077], [-70.6707264, -33.4676017], [-70.6707218, -33.4675821], [-70.6707124, -33.4675698], [-70.6706547, -33.4675284], [-70.670093, -33.4681288], [-70.6700471, -33.4681779], [-70.6701089, -33.4682075], [-70.6702945, -33.4683232], [-70.6706989, -33.4683265], [-70.6707013, -33.4682077]]], [[[-70.670868, -33.4674452], [-70.6709057, -33.4674718], [-70.6709212, -33.4674888], [-70.6709289, -33.4675086], [-70.6709166, -33.4682094], [-70.6709149, -33.4683282], [-70.6716357, -33.4683341], [-70.671689, -33.4683346], [-70.6717605, -33.4683351], [-70.6721395, -33.4683382], [-70.6725372, -33.4683414], [-70.6729486, -33.4683447], [-70.6729859, -33.4683449], [-70.6729874, -33.4682729], [-70.67299, -33.4681376], [-70.6729945, -33.4679117], [-70.6730093, -33.4671616], [-70.6730108, -33.4670881], [-70.6730311, -33.4667028], [-70.6730358, -33.4665383], [-70.6730412, -33.4664584], [-70.6729004, -33.4664552], [-70.6721917, -33.4664392], [-70.671865, -33.4664301], [-70.6718222, -33.4664289], [-70.6717434, -33.4664268], [-70.6716473, -33.4664954], [-70.6715881, -33.46654], [-70.6715331, -33.4665848], [-70.6714797, -33.4666338], [-70.6709922, -33.4671448], [-70.6707794, -33.4673922], [-70.670868, -33.4674452]]]]}}, {"type": "Feature", "properties": {"n": 42, "nmanzanas": 3, "centro": [-70.676519, -33.46879], "color": "#626365", "letras": "ABC"}, "geometry": {"type": "Polygon", "coordinates": [[[-70.6768648, -33.4694763], [-70.6781196, -33.4694825], [-70.6790561, -33.4694897], [-70.6790802, -33.4694897], [-70.6791119, -33.4694897], [-70.6791902, -33.4694896], [-70.6791747, -33.469451], [-70.6791653, -33.4694108], [-70.6791552, -33.469361], [-70.6791465, -33.4692967], [-70.6791285, -33.4691406], [-70.6790956, -33.4691344], [-70.6790672, -33.4691221], [-70.6790165, -33.4690997], [-70.6789762, -33.4690712], [-70.6789434, -33.4690415], [-70.6789119, -33.469008], [-70.6784492, -33.468391], [-70.6783131, -33.4683905], [-70.6768425, -33.4683851], [-70.6755651, -33.468371], [-70.6749221, -33.4683638], [-70.674347, -33.468354], [-70.6742949, -33.4683531], [-70.6742939, -33.4684331], [-70.674292, -33.4685713], [-70.6742855, -33.4690589], [-70.6742802, -33.4694539], [-70.6743575, -33.4694546], [-70.6755123, -33.4694645], [-70.6755555, -33.4694649], [-70.6755981, -33.4694653], [-70.6767809, -33.4694756], [-70.6768212, -33.4694759], [-70.6768648, -33.4694763]]]}}, {"type": "Feature", "properties": {"n": 43, "nmanzanas": 4, "centro": [-70.676678, -33.470113], "color": "#feebbd", "letras": "ABCD"}, "geometry": {"type": "Polygon", "coordinates": [[[-70.6768648, -33.4694763], [-70.6768212, -33.4694759], [-70.6767809, -33.4694756], [-70.6755981, -33.4694653], [-70.6755555, -33.4694649], [-70.6755123, -33.4694645], [-70.6743575, -33.4694546], [-70.6742802, -33.4694539], [-70.6742653, -33.470573], [-70.6742645, -33.47063], [-70.6755451, -33.4706403], [-70.6756396, -33.4706411], [-70.6756644, -33.4706413], [-70.6763993, -33.4706471], [-70.6765254, -33.4706482], [-70.6767983, -33.4706504], [-70.6775696, -33.4706566], [-70.6781055, -33.4706608], [-70.6789089, -33.470667], [-70.6791112, -33.4706686], [-70.6791055, -33.4706007], [-70.6791042, -33.4705725], [-70.6790918, -33.4702945], [-70.6790756, -33.4699309], [-70.6790561, -33.4694897], [-70.6781196, -33.4694825], [-70.6768648, -33.4694763]]]}}, {"type": "Feature", "properties": {"n": 44, "nmanzanas": 6, "centro": [-70.673203, -33.469479], "color": "#84b1df", "letras": "ABCDEF"}, "geometry": {"type": "Polygon", "coordinates": [[[-70.6721252, -33.4695036], [-70.6721123, -33.4705585], [-70.6721122, -33.4705675], [-70.6721116, -33.4706137], [-70.672511, -33.4706164], [-70.6728561, -33.4706193], [-70.6729527, -33.4706201], [-70.6730439, -33.4706207], [-70.6730721, -33.4706209], [-70.6736164, -33.4706247], [-70.67391, -33.4706287], [-70.6742645, -33.47063], [-70.6742653, -33.470573], [-70.6742802, -33.4694539], [-70.6742855, -33.4690589], [-70.674292, -33.4685713], [-70.6742939, -33.4684331], [-70.6742949, -33.4683531], [-70.67424, -33.4683527], [-70.6738174, -33.4683501], [-70.6734278, -33.4683477], [-70.6733069, -33.4683469], [-70.673066, -33.4683454], [-70.6730365, -33.4683452], [-70.6729859, -33.4683449], [-70.6729486, -33.4683447], [-70.6725372, -33.4683414], [-70.6721395, -33.4683382], [-70.672139, -33.4683781], [-70.6721268, -33.4693749], [-70.672126, -33.4694303], [-70.6721252, -33.4695036]]]}}, {"type": "Feature", "properties": {"n": 45, "nmanzanas": 5, "centro": [-70.671203, -33.469467], "color": "#2e9b55", "letras": "ABCDE"}, "geometry": {"type": "Polygon", "coordinates": [[[-70.6721123, -33.4705585], [-70.6721252, -33.4695036], [-70.672126, -33.4694303], [-70.6721268, -33.4693749], [-70.672139, -33.4683781], [-70.6721395, -33.4683382], [-70.6717605, -33.4683351], [-70.671689, -33.4683346], [-70.6716357, -33.4683341], [-70.6709149, -33.4683282], [-70.6707514, -33.4683269], [-70.6706989, -33.4683265], [-70.6702945, -33.4683232], [-70.670294, -33.4683597], [-70.6702935, -33.4683944], [-70.6702876, -33.468825], [-70.6702804, -33.4693442], [-70.6702796, -33.4693995], [-70.6702936, -33.4705462], [-70.6703077, -33.4705685], [-70.6703375, -33.4705924], [-70.6704056, -33.4705932], [-70.6706017, -33.4705959], [-70.6715805, -33.4706096], [-70.671669, -33.4706107], [-70.6717719, -33.4706114], [-70.6718047, -33.4706116], [-70.6721116, -33.4706137], [-70.6721122, -33.4705675], [-70.6721123, -33.4705585]]]}}, {"type": "Feature", "properties": {"n": 46, "nmanzanas": 3, "centro": [-70.66986, -33.469382], "color": "#8f435e", "letras": "ABF"}, "geometry": {"type": "Polygon", "coordinates": [[[-70.6703375, -33.4705924], [-70.6703077, -33.4705685], [-70.6702936, -33.4705462], [-70.6702796, -33.4693995], [-70.6702804, -33.4693442], [-70.6702876, -33.468825], [-70.6702935, -33.4683944], [-70.670294, -33.4683597], [-70.6702945, -33.4683232], [-70.6701089, -33.4682075], [-70.6700471, -33.4681779], [-70.669888, -33.4683486], [-70.6691206, -33.4691679], [-70.6691827, -33.4692095], [-70.6692123, -33.4692293], [-70.6693511, -33.4693223], [-70.669386, -33.4693419], [-70.6694108, -33.4693548], [-70.669441, -33.4693648], [-70.6694375, -33.4695159], [-70.6694331, -33.4697665], [-70.6694222, -33.470384], [-70.6694195, -33.4705381], [-70.6694187, -33.4705807], [-70.669831, -33.4705862], [-70.6703375, -33.4705924]]]}}, {"type": "Feature", "properties": {"n": 47, "nmanzanas": 1, "centro": [-70.668947, -33.469867], "color": "#983b95", "letras": "A"}, "geometry": {"type": "Polygon", "coordinates": [[[-70.6691499, -33.4705771], [-70.6694187, -33.4705807], [-70.6694195, -33.4705381], [-70.6694222, -33.470384], [-70.6694331, -33.4697665], [-70.6694375, -33.4695159], [-70.669441, -33.4693648], [-70.6694108, -33.4693548], [-70.669386, -33.4693419], [-70.6693511, -33.4693223], [-70.6692123, -33.4692293], [-70.6691827, -33.4692095], [-70.6691206, -33.4691679], [-70.6689176, -33.4693847], [-70.668698, -33.4696197], [-70.668548, -33.4697779], [-70.6683782, -33.469957], [-70.6681427, -33.4702024], [-70.6679061, -33.4704489], [-70.6678377, -33.4705202], [-70.6678002, -33.4705593], [-70.6679732, -33.4705615], [-70.668302, -33.4705658], [-70.6685131, -33.4705686], [-70.6687406, -33.4705716], [-70.6689591, -33.4705745], [-70.6691499, -33.4705771]]]}}, {"type": "Feature", "properties": {"n": 48, "nmanzanas": 1, "centro": [-70.668212, -33.464818], "color": "#5dba48", "letras": "A"}, "geometry": {"type": "Polygon", "coordinates": [[[-70.665193, -33.457356], [-70.665182, -33.470311], [-70.665282, -33.470373], [-70.66762, -33.470439], [-70.667776, -33.470329], [-70.671214, -33.466422], [-70.671259, -33.463214], [-70.671951, -33.458535], [-70.671905, -33.458485], [-70.66529, -33.457292], [-70.665193, -33.457356]]]}}, {"type": "Feature", "properties": {"n": 49, "nmanzanas": 4, "centro": [-70.664453, -33.460167], "color": "#c1c006", "letras": "ABCD"}, "geometry": {"type": "Polygon", "coordinates": [[[-70.6637554, -33.4634797], [-70.6638182, -33.463481], [-70.6639699, -33.4634861], [-70.6649647, -33.463509], [-70.6649863, -33.4622835], [-70.6649999, -33.4609783], [-70.6650155, -33.4587855], [-70.6650164, -33.4586399], [-70.6650135, -33.4585695], [-70.6650084, -33.4573002], [-70.6650081, -33.4572173], [-70.6648879, -33.4571998], [-70.6641043, -33.4571572], [-70.6640712, -33.4571535], [-70.6640135, -33.4571505], [-70.6640089, -33.4571963], [-70.6640062, -33.4572153], [-70.6639643, -33.4578228], [-70.6639409, -33.4584073], [-70.6639389, -33.4584662], [-70.6639684, -33.4584655], [-70.6639968, -33.458472], [-70.6640217, -33.4584852], [-70.6640409, -33.4585039], [-70.6640521, -33.4585249], [-70.664056, -33.4585478], [-70.6640522, -33.4585707], [-70.6640409, -33.4585918], [-70.6640306, -33.4586032], [-70.6640181, -33.458613], [-70.6640054, -33.4586491], [-70.6640009, -33.458672], [-70.663997, -33.4586854], [-70.663939, -33.4590373], [-70.6639264, -33.459543], [-70.6639184, -33.459727], [-70.6638804, -33.4606073], [-70.6638649, -33.4609593], [-70.6638097, -33.4622181], [-70.6638072, -33.46228], [-70.6638024, -33.462399], [-70.6637554, -33.4634797]]]}}, {"type": "Feature", "properties": {"n": 50, "nmanzanas": 7, "centro": [-70.664277, -33.46677], "color": "#186838", "letras": "ABCDEFG"}, "geometry": {"type": "Polygon", "coordinates": [[[-70.6634443, -33.4702819], [-70.663442, -33.4703297], [-70.6634416, -33.4704559], [-70.6635583, -33.4704612], [-70.6636034, -33.4704629], [-70.6638966, -33.4704741], [-70.6644035, -33.4704936], [-70.664918, -33.4705133], [-70.664919, -33.470417], [-70.66492, -33.4703298], [-70.6649208, -33.4701877], [-70.6649231, -33.4700353], [-70.6649219, -33.4696524], [-70.664924, -33.4694663], [-70.6649261, -33.4692819], [-70.6649326, -33.4689677], [-70.6649321, -33.4680571], [-70.6649357, -33.4673316], [-70.6649382, -33.4672616], [-70.6649387, -33.4671182], [-70.6649473, -33.4665014], [-70.6649492, -33.4662553], [-70.6649546, -33.4655545], [-70.6649603, -33.4643998], [-70.6649647, -33.463509], [-70.6639699, -33.4634861], [-70.6638182, -33.463481], [-70.6637554, -33.4634797], [-70.663754, -33.463549], [-70.6636735, -33.4653647], [-70.6636265, -33.4664481], [-70.6635958, -33.4670379], [-70.663592, -33.4672412], [-70.6635917, -33.4672722], [-70.6635447, -33.4681129], [-70.6635336, -33.4683932], [-70.6635061, -33.4690201], [-70.6634966, -33.4692398], [-70.6634793, -33.4696142], [-70.6634586, -33.4699916], [-70.6634541, -33.4700797], [-70.6634443, -33.4702819]]]}}, {"type": "Feature", "properties": {"n": 51, "nmanzanas": 20, "centro": [-70.660198, -33.462821], "color": "#57b949", "letras": "ABCDEFGHIJKLMNOPQRST"}, "geometry": {"type": "MultiPolygon", "coordinates": [[[[-70.658316, -33.46868], [-70.65777654207955, -33.468551768199234], [-70.65769042978349, -33.46853129888296], [-70.65743925474197, -33.468471593340304], [-70.657096, -33.46839], [-70.65696637014345, -33.46841851856844], [-70.656946, -33.468423], [-70.65694487006483, -33.46847196385758], [-70.65691746294551, -33.469659605694176], [-70.65690725826941, -33.47010180832548], [-70.6572162, -33.4701116], [-70.6575394, -33.4701245], [-70.6584225, -33.470163], [-70.659472, -33.4702258], [-70.65959545437885, -33.470232503405185], [-70.659668, -33.470198], [-70.659808, -33.469685], [-70.659761, -33.469598], [-70.65965722756867, -33.469564828299724], [-70.6596267249952, -33.46955507790445], [-70.659176, -33.469411], [-70.658886, -33.469245], [-70.658587, -33.468998], [-70.658316, -33.46868]]], [[[-70.659864, -33.469476], [-70.659925, -33.469167], [-70.65955, -33.468876], [-70.659251, -33.468307], [-70.659101, -33.468328], [-70.658482, -33.468665], [-70.658469, -33.468747], [-70.65857, -33.468884], [-70.659007, -33.46925], [-70.659525, -33.469475], [-70.659759, -33.469528], [-70.659864, -33.469476]]], [[[-70.660179, -33.46905], [-70.660313, -33.468978], [-70.66052087839788, -33.4687804218831], [-70.660535, -33.468767], [-70.660761, -33.468392], [-70.660931, -33.467879], [-70.661002, -33.467336], [-70.660992, -33.466845], [-70.660842, -33.466211], [-70.660724, -33.465979], [-70.66057, -33.465799], [-70.660402, -33.465694], [-70.660205, -33.465666], [-70.659996, -33.465744], [-70.659818, -33.465892], [-70.659598, -33.466198], [-70.6595147959517, -33.4664077729184], [-70.659362, -33.466793], [-70.659282, -33.46728], [-70.659297, -33.467992], [-70.659397, -33.468425], [-70.659632, -33.468869], [-70.659801, -33.469011], [-70.659991, -33.469078], [-70.660179, -33.46905]]], [[[-70.659471, -33.466269], [-70.659602, -33.466046], [-70.659912, -33.465701], [-70.659864, -33.465608], [-70.659553, -33.46548], [-70.659155, -33.465209], [-70.65887, -33.464923], [-70.658621, -33.464574], [-70.65853, -33.464531], [-70.658154, -33.464575], [-70.657615, -33.464772], [-70.657244, -33.465054], [-70.657053, -33.465278], [-70.65699240771853, -33.465395357682], [-70.656958, -33.465462], [-70.65694607717404, -33.46653313129982], [-70.656945361232, -33.46659745060895], [-70.656927, -33.468247], [-70.656974, -33.468297], [-70.65743235943174, -33.46840398396656], [-70.658345, -33.468617], [-70.658525, -33.468564], [-70.65870345301009, -33.468463916563564], [-70.65924, -33.468163], [-70.659194, -33.467401], [-70.659322, -33.466674], [-70.65944395040538, -33.466342524065915], [-70.659471, -33.466269]]], [[[-70.65994218861825, -33.47025251377929], [-70.66259010000384, -33.470310447490434], [-70.662981, -33.470319], [-70.663077, -33.470254], [-70.66321577168996, -33.467055467993305], [-70.66322816715815, -33.46676976633635], [-70.66323887010257, -33.46652307545653], [-70.66328147079518, -33.46554117721155], [-70.6632909991568, -33.465321559149835], [-70.66342576036776, -33.46221546419169], [-70.66349174500287, -33.460694592265575], [-70.663568, -33.458937], [-70.663468, -33.458875], [-70.660337, -33.45877], [-70.660241, -33.458835], [-70.66022, -33.45927], [-70.660715, -33.459496], [-70.660884, -33.459676], [-70.66098, -33.459901], [-70.660949, -33.460248], [-70.661356, -33.460576], [-70.661564, -33.4608], [-70.661986, -33.461474], [-70.662252, -33.462302], [-70.662306, -33.462685], [-70.662317, -33.46324], [-70.66226, -33.463726], [-70.662155, -33.464124], [-70.662005, -33.464498], [-70.66198554453902, -33.464530781119166], [-70.661786, -33.464867], [-70.661314, -33.465353], [-70.661074980481, -33.46547029345868], [-70.66082368734297, -33.46559360992014], [-70.66063421469855, -33.46568658936334], [-70.660613, -33.465697], [-70.660886, -33.466109], [-70.66102294160274, -33.46653588003061], [-70.661031, -33.466561], [-70.66106876402372, -33.46696744330614], [-70.66109, -33.467196], [-70.661014, -33.467878], [-70.660887, -33.468289], [-70.660648, -33.46874], [-70.66055616714749, -33.46883215965981], [-70.66044298598284, -33.4689457436044], [-70.660367, -33.469022], [-70.66006, -33.469146], [-70.66000497832329, -33.46921240547191], [-70.660002, -33.469216], [-70.65980282229226, -33.47006687319005], [-70.659774, -33.47019], [-70.65987076537635, -33.47024962311068], [-70.6599114, -33.4702507], [-70.65994218861825, -33.47025251377929]]], [[[-70.658092, -33.464525], [-70.65846, -33.464469], [-70.658505, -33.464418], [-70.658234, -33.463729], [-70.658088, -33.462931], [-70.658091, -33.462326], [-70.658212, -33.461663], [-70.658377, -33.461257], [-70.658307, -33.461157], [-70.65787969729172, -33.4611657490317], [-70.65711598715045, -33.461181386012484], [-70.657086, -33.461182], [-70.656989, -33.461246], [-70.65697491531527, -33.463472553909064], [-70.656965, -33.46504], [-70.657034, -33.465095], [-70.657116, -33.465088], [-70.657412, -33.464825], [-70.65762391145445, -33.464703693796395], [-70.657695, -33.464663], [-70.658092, -33.464525]]], [[[-70.662214, -33.46263], [-70.662161, -33.462278], [-70.66213389793828, -33.462182062026926], [-70.66210079059661, -33.46206486609967], [-70.66208143305543, -33.46199634277907], [-70.66199832454308, -33.46170214884269], [-70.661998, -33.461701], [-70.66192062660949, -33.46154707343158], [-70.66185477601333, -33.46141607030212], [-70.661715, -33.461138], [-70.66156703106394, -33.4609322406211], [-70.661482, -33.460814], [-70.66129784395187, -33.460628519088225], [-70.661204, -33.460534], [-70.660791, -33.460251], [-70.66067876803098, -33.46021257136661], [-70.66035, -33.4601], [-70.66031955610876, -33.4600986548048], [-70.65996702179945, -33.46008307770742], [-70.65992, -33.460081], [-70.659515, -33.460169], [-70.659172, -33.460357], [-70.658847, -33.460651], [-70.65854957785287, -33.46106007896648], [-70.658546, -33.461065], [-70.65837615595817, -33.46145116282148], [-70.658345, -33.461522], [-70.658198, -33.462079], [-70.658173, -33.463012], [-70.65824448548773, -33.46344916125182], [-70.658251, -33.463489], [-70.658421, -33.464022], [-70.65848421210069, -33.46415158480641], [-70.658641, -33.464473], [-70.658914, -33.464866], [-70.659168, -33.465127], [-70.659582, -33.465423], [-70.660098, -33.465598], [-70.660453, -33.465611], [-70.660828, -33.465537], [-70.661112, -33.465406], [-70.661468, -33.46513], [-70.66174186160896, -33.4648017477579], [-70.661755, -33.464786], [-70.66203, -33.464246], [-70.66208189702627, -33.46407460898046], [-70.662149, -33.463853], [-70.662228, -33.46331], [-70.66222692887952, -33.463257974147915], [-70.662214, -33.46263]]], [[[-70.660205, -33.460014], [-70.660797, -33.460175], [-70.660901, -33.460104], [-70.660889, -33.459877], [-70.660747, -33.459621], [-70.660518, -33.459454], [-70.660161, -33.459365], [-70.659891, -33.459401], [-70.659644, -33.459505], [-70.659452, -33.459691], [-70.659351, -33.459925], [-70.659354, -33.460064], [-70.659454, -33.460126], [-70.659723, -33.46004], [-70.660205, -33.460014]]], [[[-70.6576168, -33.4584029], [-70.6576668, -33.4583374], [-70.6577157, -33.4582938], [-70.657772, -33.4582574], [-70.6578398, -33.4582244], [-70.6579187, -33.4582013], [-70.6580047, -33.4581814], [-70.6581341, -33.4581668], [-70.659398, -33.4582638], [-70.659804, -33.4582948], [-70.6599722, -33.4582658], [-70.6600038, -33.4582608], [-70.6600399, -33.4582517], [-70.6600631, -33.4582437], [-70.6600913, -33.4582316], [-70.6601163, -33.4582182], [-70.6601463, -33.4581981], [-70.6601738, -33.4581748], [-70.6601967, -33.4581501], [-70.6602148, -33.4581254], [-70.6602302, -33.4580982], [-70.6602448, -33.4580603], [-70.6602539, -33.4580044], [-70.6602984, -33.4573137], [-70.6603046, -33.4572396], [-70.6603075, -33.4571924], [-70.6603079, -33.457153], [-70.6602992, -33.457116], [-70.6602856, -33.4570852], [-70.6602758, -33.4570552], [-70.6602669, -33.457021], [-70.6602589, -33.456985], [-70.6602535, -33.4569481], [-70.6602565, -33.456905], [-70.6602703, -33.4568522], [-70.6602905, -33.4568172], [-70.6603185, -33.4567807], [-70.6603551, -33.4567427], [-70.660431, -33.4566556], [-70.6604126, -33.4566536], [-70.660278, -33.4566375], [-70.6596543, -33.4565632], [-70.6596968, -33.4566229], [-70.6597007, -33.4566616], [-70.6596973, -33.4566817], [-70.6596835, -33.4567619], [-70.6596273, -33.4567275], [-70.6595993, -33.4567196], [-70.6595806, -33.4567158], [-70.6593715, -33.4566978], [-70.6583055, -33.4566033], [-70.6577812, -33.4565561], [-70.6576659, -33.456539], [-70.6571696, -33.4564965], [-70.657107, -33.4565037], [-70.65703281422152, -33.45652636193809], [-70.6570123, -33.4565886], [-70.6569815, -33.4567274], [-70.6568943, -33.4573741], [-70.6568715, -33.4576382], [-70.65686746859332, -33.4578071580587], [-70.6568675, -33.4578088], [-70.6568762, -33.4579251], [-70.6568909, -33.4580409], [-70.6568994, -33.4580848], [-70.6569155, -33.4581683], [-70.6569486, -33.4582944], [-70.6569962, -33.4584482], [-70.6570275, -33.4585626], [-70.6570525, -33.4586781], [-70.6570682, -33.4587725], [-70.6570807, -33.4588672], [-70.6571276, -33.4594026], [-70.6571504, -33.4596101], [-70.6571766, -33.4599475], [-70.6571818, -33.4600518], [-70.6571826, -33.4601561], [-70.6571779, -33.4602792], [-70.6571753905643, -33.46031488130285], [-70.65701, -33.460427], [-70.657016, -33.461082], [-70.6571, -33.461118], [-70.658441, -33.461086], [-70.658852, -33.460538], [-70.659275, -33.46021], [-70.659282, -33.45987], [-70.659464, -33.459571], [-70.659695, -33.459404], [-70.660122, -33.459271], [-70.660188, -33.458861], [-70.660141, -33.458773], [-70.65976864629113, -33.458761469213606], [-70.65756306184058, -33.45869316823375], [-70.6575565, -33.4586673], [-70.6575541, -33.4585913], [-70.6575601, -33.4585173], [-70.6575837, -33.4584512], [-70.6576168, -33.4584029]]], [[[-70.6605481, -33.4569953], [-70.6605247, -33.4570233], [-70.6605092, -33.4570519], [-70.6604945, -33.4570865], [-70.6604829, -33.4571312], [-70.6604434, -33.4581775], [-70.6604417, -33.4582268], [-70.6604396, -33.4582885], [-70.6605283, -33.458294], [-70.660768, -33.4583085], [-70.6608381, -33.4583127], [-70.6610238, -33.4583246], [-70.6616042, -33.4583617], [-70.6620725, -33.4583916], [-70.6630635, -33.4584549], [-70.6635868, -33.4584883], [-70.6636857, -33.4584936], [-70.6637949, -33.4584995], [-70.6638419, -33.4584986], [-70.6638819, -33.458493], [-70.6638983, -33.4584806], [-70.6639176, -33.4584715], [-70.6639389, -33.4584662], [-70.6639409, -33.4584073], [-70.6639643, -33.4578228], [-70.6640062, -33.4572153], [-70.6640089, -33.4571963], [-70.6640135, -33.4571505], [-70.6639296, -33.4571434], [-70.6625008, -33.4570243], [-70.6612694, -33.456931], [-70.6609171, -33.4568976], [-70.6608737, -33.4568926], [-70.6608403, -33.4568919], [-70.6607976, -33.4568891], [-70.6607439, -33.4568941], [-70.6606943, -33.4569058], [-70.6606688, -33.4569153], [-70.660646, -33.4569249], [-70.6606152, -33.4569439], [-70.6605797, -33.4569679], [-70.6605481, -33.4569953]]]]}}, {"type": "Feature", "properties": {"n": 52, "nmanzanas": 7, "centro": [-70.657997, -33.471643], "color": "#7d0a3d", "letras": "ABCDEFG"}, "geometry": {"type": "Polygon", "coordinates": [[[-70.656433, -33.471633], [-70.656382, -33.4717197], [-70.6562606, -33.471897], [-70.6562043, -33.4719804], [-70.6560621, -33.4721994], [-70.6559395, -33.4723883], [-70.6559291, -33.4726059], [-70.6559127, -33.4729509], [-70.6559098, -33.473011], [-70.6561675, -33.4730258], [-70.6562944, -33.4730331], [-70.6569681, -33.4730718], [-70.6570536, -33.473077], [-70.6573552, -33.4730934], [-70.6577479, -33.4731151], [-70.6581802, -33.473139], [-70.6582666, -33.473144], [-70.6592731, -33.4732029], [-70.6594521, -33.4732134], [-70.6594576, -33.4731389], [-70.6594604, -33.4731005], [-70.6595297, -33.4721581], [-70.6595568, -33.4717885], [-70.6595612, -33.4717293], [-70.6595667, -33.4716539], [-70.6596545, -33.4704377], [-70.6596566, -33.4704137], [-70.6596709, -33.4702366], [-70.659472, -33.4702258], [-70.6584225, -33.470163], [-70.6575394, -33.4701245], [-70.6572162, -33.4701116], [-70.6567871, -33.470098], [-70.6567179, -33.4700968], [-70.65664, -33.4700934], [-70.6566351, -33.4702001], [-70.6565982, -33.4709937], [-70.6565921, -33.4710811], [-70.656584, -33.4711495], [-70.6565676, -33.4712464], [-70.65655, -33.4713251], [-70.6565324, -33.47139], [-70.6565123, -33.4714543], [-70.6564688, -33.4715617], [-70.656433, -33.471633]]]}}, {"type": "Feature", "properties": {"n": 53, "nmanzanas": 6, "centro": [-70.66222, -33.471959], "color": "#7aaede", "letras": "ABCDEF"}, "geometry": {"type": "Polygon", "coordinates": [[[-70.6599114, -33.4702507], [-70.6598548, -33.4702492], [-70.6596709, -33.4702366], [-70.6596566, -33.4704137], [-70.6596545, -33.4704377], [-70.6595667, -33.4716539], [-70.6595612, -33.4717293], [-70.6595568, -33.4717885], [-70.6595297, -33.4721581], [-70.6594604, -33.4731005], [-70.6594576, -33.4731389], [-70.6594521, -33.4732134], [-70.6596368, -33.4732236], [-70.662892, -33.4734031], [-70.663022, -33.4734102], [-70.6633171, -33.4734264], [-70.6640223, -33.473465], [-70.6646517, -33.4734995], [-70.6647671, -33.4735056], [-70.6647954, -33.4735071], [-70.6648681, -33.4735108], [-70.6648724, -33.4734105], [-70.6648754, -33.4733421], [-70.6648816, -33.4731008], [-70.6648929, -33.4721294], [-70.6648978, -33.4717871], [-70.6648986, -33.4717382], [-70.6649077, -33.4711742], [-70.664918, -33.4705133], [-70.6644035, -33.4704936], [-70.6638966, -33.4704741], [-70.6636034, -33.4704629], [-70.6635583, -33.4704612], [-70.6634416, -33.4704559], [-70.6633388, -33.4704515], [-70.6622352, -33.4703864], [-70.6618778, -33.4703705], [-70.660991, -33.4703143], [-70.6599114, -33.4702507]]]}}, {"type": "Feature", "properties": {"n": 54, "nmanzanas": 6, "centro": [-70.665617, -33.471979], "color": "#fdeabb", "letras": "ABCDEF"}, "geometry": {"type": "Polygon", "coordinates": [[[-70.6662737, -33.4720469], [-70.6664892, -33.4718187], [-70.6665952, -33.471864], [-70.6666508, -33.4718979], [-70.6673839, -33.47189], [-70.6678752, -33.4718919], [-70.6683666, -33.4718939], [-70.6685766, -33.4718947], [-70.6688811, -33.4718948], [-70.6691329, -33.4718974], [-70.6693792, -33.4718989], [-70.6703315, -33.471893], [-70.670377, -33.4718928], [-70.6704401, -33.4718935], [-70.6705247, -33.4718945], [-70.6715479, -33.4719065], [-70.6716639, -33.4719105], [-70.6716736, -33.471086], [-70.6716702, -33.4707414], [-70.6716703, -33.4706731], [-70.671669, -33.4706107], [-70.6715805, -33.4706096], [-70.6706017, -33.4705959], [-70.6704056, -33.4705932], [-70.6703375, -33.4705924], [-70.669831, -33.4705862], [-70.6694187, -33.4705807], [-70.6691499, -33.4705771], [-70.6689591, -33.4705745], [-70.6687406, -33.4705716], [-70.6685131, -33.4705686], [-70.668302, -33.4705658], [-70.6679732, -33.4705615], [-70.6678002, -33.4705593], [-70.6677323, -33.4705564], [-70.6676585, -33.4705532], [-70.6674523, -33.4705486], [-70.6650456, -33.4705151], [-70.664918, -33.4705133], [-70.6649077, -33.4711742], [-70.6648986, -33.4717382], [-70.6648978, -33.4717871], [-70.6648929, -33.4721294], [-70.6648816, -33.4731008], [-70.6648754, -33.4733421], [-70.6648724, -33.4734105], [-70.6648681, -33.4735108], [-70.6649107, -33.4734856], [-70.6649429, -33.4734626], [-70.6649881, -33.4734147], [-70.6650241, -33.4733765], [-70.6660196, -33.4723172], [-70.6662737, -33.4720469]]]}}, {"type": "Feature", "properties": {"n": 55, "nmanzanas": 12, "centro": [-70.667546, -33.472796], "color": "#64bd57", "letras": "ABCDEFGHIJKL"}, "geometry": {"type": "Polygon", "coordinates": [[[-70.6690068, -33.4731626], [-70.6690441, -33.47315], [-70.6690835, -33.473142], [-70.6691375, -33.4731387], [-70.6693625, -33.4731319], [-70.6693631, -33.4730873], [-70.669371, -33.4725052], [-70.669374, -33.4722836], [-70.6693787, -33.471939], [-70.6693792, -33.4718989], [-70.6691329, -33.4718974], [-70.6688811, -33.4718948], [-70.6685766, -33.4718947], [-70.6683666, -33.4718939], [-70.6678752, -33.4718919], [-70.6673839, -33.47189], [-70.6666508, -33.4718979], [-70.6665952, -33.471864], [-70.6661144, -33.4723803], [-70.6651646, -33.4733938], [-70.6651301, -33.4734292], [-70.6650435, -33.473518], [-70.6651441, -33.4735222], [-70.6653902, -33.4735289], [-70.6654475, -33.473532], [-70.6654931, -33.4735376], [-70.6655431, -33.4735465], [-70.665589, -33.4735566], [-70.6656329, -33.4735633], [-70.6656712, -33.473565], [-70.6657268, -33.4735703], [-70.6659293, -33.4735748], [-70.6663412, -33.4735841], [-70.6666616, -33.4735924], [-70.6672766, -33.473607], [-70.6672779, -33.4735519], [-70.667286, -33.4735243], [-70.6672969, -33.473504], [-70.6673142, -33.4734861], [-70.6673462, -33.4734697], [-70.6673926, -33.4734537], [-70.6674453, -33.4734445], [-70.6675043, -33.4734444], [-70.6678491, -33.4734537], [-70.6680065, -33.4734582], [-70.6680798, -33.4734774], [-70.6681356, -33.4735003], [-70.6681837, -33.4735333], [-70.6682081, -33.4735578], [-70.6682892, -33.4735174], [-70.6683462, -33.473489], [-70.6688662, -33.4732362], [-70.6689662, -33.4731802], [-70.6690068, -33.4731626]]]}}, {"type": "Feature", "properties": {"n": 56, "nmanzanas": 11, "centro": [-70.668259, -33.474441], "color": "#ce6a2e", "letras": "ABCDEFGHIJK"}, "geometry": {"type": "Polygon", "coordinates": [[[-70.6716293, -33.4748325], [-70.6716346, -33.474386], [-70.671642, -33.4737623], [-70.6716463, -33.4733972], [-70.6716483, -33.4732261], [-70.6716492, -33.473155], [-70.6715854, -33.4731544], [-70.6715452, -33.473154], [-70.6703676, -33.473142], [-70.670302, -33.4731414], [-70.6701747, -33.4731401], [-70.6693625, -33.4731319], [-70.6691375, -33.4731387], [-70.6690835, -33.473142], [-70.6690441, -33.47315], [-70.6690068, -33.4731626], [-70.6689662, -33.4731802], [-70.6688662, -33.4732362], [-70.6683462, -33.473489], [-70.6682892, -33.4735174], [-70.6682081, -33.4735578], [-70.6681837, -33.4735333], [-70.6681356, -33.4735003], [-70.6680798, -33.4734774], [-70.6680065, -33.4734582], [-70.6678491, -33.4734537], [-70.6675043, -33.4734444], [-70.6674453, -33.4734445], [-70.6673926, -33.4734537], [-70.6673462, -33.4734697], [-70.6673142, -33.4734861], [-70.6672969, -33.473504], [-70.667286, -33.4735243], [-70.6672779, -33.4735519], [-70.6672766, -33.473607], [-70.6672743, -33.4737065], [-70.6666522, -33.4736927], [-70.6664289, -33.4736869], [-70.6657157, -33.4736718], [-70.6656789, -33.4736715], [-70.6656453, -33.4736732], [-70.6656152, -33.4736785], [-70.665579, -33.4736897], [-70.6654713, -33.4737322], [-70.6654424, -33.4737408], [-70.6654123, -33.4737459], [-70.6653718, -33.4737471], [-70.6650267, -33.4737323], [-70.6649987, -33.4737311], [-70.6648945, -33.4737233], [-70.6648936, -33.4737885], [-70.6648823, -33.4744955], [-70.6648769, -33.4751789], [-70.6648658, -33.4756267], [-70.6648598, -33.4756703], [-70.6648519, -33.475694], [-70.664841, -33.4757237], [-70.6649544, -33.4757188], [-70.6649919, -33.4757196], [-70.6657898, -33.4757368], [-70.6677601, -33.4757775], [-70.667869, -33.4757797], [-70.6685373, -33.4757911], [-70.6686934, -33.4757934], [-70.66879, -33.4757948], [-70.6689203, -33.4757968], [-70.6693261, -33.4758035], [-70.6694739, -33.4758042], [-70.6703323, -33.4758081], [-70.6704522, -33.4758111], [-70.6712995, -33.4758323], [-70.6715473, -33.4758362], [-70.6716132, -33.4758476], [-70.6716258, -33.475054], [-70.6716282, -33.4749013], [-70.6716293, -33.4748325]]]}}, {"type": "Feature", "properties": {"n": 57, "nmanzanas": 8, "centro": [-70.67228, -33.473998], "color": "#7fa1c5", "letras": "ABCDEFGH"}, "geometry": {"type": "Polygon", "coordinates": [[[-70.6716346, -33.474386], [-70.6716293, -33.4748325], [-70.6716282, -33.4749013], [-70.6716258, -33.475054], [-70.6716132, -33.4758476], [-70.6718094, -33.4758823], [-70.6718396, -33.475861], [-70.6719116, -33.4758308], [-70.6720198, -33.4757913], [-70.6722079, -33.4757243], [-70.6724305, -33.475637], [-70.6724771, -33.4756156], [-70.6725275, -33.4755881], [-70.6725628, -33.475562], [-70.6725907, -33.4755359], [-70.6726425, -33.4754719], [-70.6727151, -33.4753628], [-70.6727579, -33.4752935], [-70.672808, -33.4752026], [-70.6728467, -33.4751162], [-70.6728713, -33.4750383], [-70.6728962, -33.4749379], [-70.6729104, -33.474857], [-70.6729265, -33.4747191], [-70.6729285, -33.4746747], [-70.6729333, -33.4745521], [-70.6729259, -33.4742328], [-70.6729128, -33.4737273], [-70.6729135, -33.4732247], [-70.6729205, -33.4726961], [-70.6729308, -33.4719227], [-70.6728615, -33.471922], [-70.6724959, -33.4719185], [-70.6720956, -33.4719147], [-70.671798, -33.4719118], [-70.6717537, -33.4719114], [-70.6716639, -33.4719105], [-70.6715479, -33.4719065], [-70.6705247, -33.4718945], [-70.6704401, -33.4718935], [-70.670377, -33.4718928], [-70.6703315, -33.471893], [-70.6693792, -33.4718989], [-70.6693787, -33.471939], [-70.669374, -33.4722836], [-70.669371, -33.4725052], [-70.6693631, -33.4730873], [-70.6693625, -33.4731319], [-70.6701747, -33.4731401], [-70.670302, -33.4731414], [-70.6703676, -33.473142], [-70.6715452, -33.473154], [-70.6715854, -33.4731544], [-70.6716492, -33.473155], [-70.6716483, -33.4732261], [-70.6716463, -33.4733972], [-70.671642, -33.4737623], [-70.6716346, -33.474386]]]}}, {"type": "Feature", "properties": {"n": 58, "nmanzanas": 5, "centro": [-70.673811, -33.47222], "color": "#7c073b", "letras": "ABCDE"}, "geometry": {"type": "Polygon", "coordinates": [[[-70.67810549999999, -33.4706608], [-70.6775696, -33.4706566], [-70.6767983, -33.4706504], [-70.6767975, -33.4707017], [-70.6767972, -33.4707204], [-70.67679749999999, -33.4707017], [-70.67679829999999, -33.4706504], [-70.6765254, -33.4706482], [-70.67639929999999, -33.4706471], [-70.67566439999999, -33.4706413], [-70.6756396, -33.4706411], [-70.67554509999998, -33.4706403], [-70.67426449999999, -33.47063], [-70.67391, -33.4706287], [-70.67361639999999, -33.4706247], [-70.6730721, -33.4706209], [-70.6730439, -33.4706207], [-70.6729527, -33.4706201], [-70.6728561, -33.4706193], [-70.672511, -33.4706164], [-70.6721116, -33.4706137], [-70.6718047, -33.4706116], [-70.6717719, -33.4706114], [-70.671669, -33.4706107], [-70.6716703, -33.4706731], [-70.6716702, -33.4707414], [-70.6716736, -33.471086], [-70.6716639, -33.4719105], [-70.6717537, -33.4719114], [-70.671798, -33.4719118], [-70.6720956, -33.4719147], [-70.6724959, -33.4719185], [-70.6728615, -33.471922], [-70.6729308, -33.4719227], [-70.6729205, -33.4726961], [-70.6729135, -33.4732247], [-70.6729128, -33.4737273], [-70.67291542614545, -33.47382863713937], [-70.67292402897131, -33.473783891623754], [-70.67292508071174, -33.47377891906171], [-70.67294408071173, -33.473696619061705], [-70.67294794106854, -33.4736830691004], [-70.67300016372045, -33.47352949656005], [-70.6730380332702, -33.4734168792602], [-70.67308738816168, -33.473264436329295], [-70.67309263588527, -33.473250694327966], [-70.67314033588526, -33.47314269432797], [-70.67314777987744, -33.4731280919817], [-70.67315690363074, -33.473114168666186], [-70.67316761927843, -33.473101058470576], [-70.67317982362299, -33.47308888765321], [-70.67319339912987, -33.47307777342572], [-70.67320821505956, -33.47306782282419], [-70.67322412872652, -33.473059131678355], [-70.67324098687347, -33.4730517836887], [-70.6732586271472, -33.47304584962038], [-70.67327324252155, -33.473042275954185], [-70.67338979994659, -33.47294226162188], [-70.67343438404674, -33.472898344948376], [-70.6734656159455, -33.472839775952366], [-70.67347419046541, -33.47282561176342], [-70.67348438782425, -33.472812216941854], [-70.67349610981589, -33.47279972048714], [-70.67350924355112, -33.47278824274695], [-70.67352366254492, -33.472777894258215], [-70.67353922793448, -33.47276877468252], [-70.6735557898166, -33.472760971846384], [-70.6735731886913, -33.47275456089537], [-70.6735912569979, -33.47274960357045], [-70.6735961629368, -33.47274869024572], [-70.67370737148957, -33.47265203016924], [-70.67371858582008, -33.472643035091785], [-70.6737306287435, -33.47263481932703], [-70.6739586287435, -33.47249161932703], [-70.67397446754642, -33.47248265808764], [-70.67418706754641, -33.47237475808764], [-70.67420944280634, -33.47236500741901], [-70.67440984280634, -33.47229110741901], [-70.67443247571926, -33.47228413115476], [-70.67466247571926, -33.47222653115476], [-70.6746738025906, -33.47222400343747], [-70.6748643025906, -33.472186603437464], [-70.6748916028511, -33.47218293433546], [-70.67517990285108, -33.47216163433546], [-70.6751992036062, -33.47216101443972], [-70.6757263036062, -33.47216601443972], [-70.67573005611149, -33.47216608035681], [-70.67631806646182, -33.472181162667475], [-70.67679924966696, -33.47219064460161], [-70.6774300226405, -33.472201840571984], [-70.67743072551085, -33.47220185411171], [-70.67772912551085, -33.47220805411171], [-70.67773410487496, -33.472208362026834], [-70.67773909603495, -33.47220847584481], [-70.6782024733247, -33.472238073971184], [-70.67834572704643, -33.472235560748], [-70.67844326392036, -33.472228037486396], [-70.67854113037139, -33.4722155134433], [-70.67863800792664, -33.47219807011618], [-70.67873347610201, -33.47217579122614], [-70.67882708257933, -33.472148791077], [-70.67891649057445, -33.472117795141195], [-70.67908597031254, -33.472044546199825], [-70.679170370732, -33.47199889125791], [-70.67925538400024, -33.47194753667633], [-70.67934746457809, -33.47188547638658], [-70.67943344717416, -33.471820539739745], [-70.67952058783611, -33.471743661700465], [-70.67959535989178, -33.471671902438246], [-70.6796624330442, -33.471597585385354], [-70.67971824819823, -33.4715264588972], [-70.679769826494, -33.47145055466764], [-70.67981531109595, -33.471377451159064], [-70.67984017884623, -33.471330598875916], [-70.67986980111051, -33.47127361128179], [-70.6799157991629, -33.47117412921946], [-70.67993780683287, -33.4711067033302], [-70.67995331202263, -33.47105535827554], [-70.6799620787508, -33.47100626459783], [-70.67996729850431, -33.4709582765413], [-70.67997447988024, -33.470791892454685], [-70.6799717481516, -33.47075273767717], [-70.67996473915181, -33.470662703615595], [-70.67977469999998, -33.4706643], [-70.6792425, -33.4706677], [-70.6791112, -33.4706686], [-70.67890889999998, -33.470667], [-70.67810549999999, -33.4706608]]]}}]}